id,latitude,longitude,name,address,phone,open24h,hasbreakfast,hasdrivethru,delivery,weekdayopen,weekdayclose,weekendopen,weekendclose,linkname,diff/dLat,diff/dLng,diff/d
4115,5.391212,100.283077,Bandar Baru Farlim,"16D Lebuhraya Thean Tek Farlim Business Centre, 11060 Bandar Baru Farlim, Pulau Pinang",0193312493,true,true,false,true,12:00 am,12:00 am,12:00 am,12:00 am,bandar_baru_farlim,,,
4116,2.814565,101.797304,Bandar Baru Nilai,"Lot PT 12162 & 12163 Ground Floor, Jalan BBN 1/1F, Putra Point Phase 2B Bandar Baru Nilai, 71800 Nilai, Negeri Sembilan",0193383026,false,true,false,true,8:00 am,11:00 pm,8:00 am,11:00 pm,bandar_baru_nilai,,,
4117,3.203356,101.487257,Bandar Baru Saujana,"No 56G, Jalan 6/3 Jalan Bidara, 47000 Sg Buloh, Selangor",0193363591,false,true,false,false,8:00 am,11:00 pm,8:00 am,11:00 pm,bandar_baru_saujana,,,
4118,3.236087,101.671973,Bandar Baru Selayang,"36 Jalan 2/16, Bandar Baru Selayang, 68100 Batu Caves, Selangor, Selangor",0193373532,false,true,false,true,8:00 am,11:00 pm,8:00 am,11:00 pm,bandar_baru_selayang,,,
4119,6.244136,100.420048,Bandar Darul Aman Jaya Jitra,"No. 16, Bandar Darul Aman Jaya Jitra, 06000 Jitra, Kedah",0193315722,true,true,false,false,12:00 am,12:00 am,12:00 am,12:00 am,bandar_darul_aman_jaya_jitra,,,
4120,2.747165,101.763895,Bandar Enstek Nilai,"No. 21 & 22, Jalan Timur 6/1A@Enstek, 71760 Bandar Enstek Nilai, Negeri Sembilan",0193315718,false,false,false,false,10:30 am,11:00 pm,10:30 am,11:00 pm,bandar_enstek_nilai,,,
4121,3.069881,103.069518,Bandar Muadzam Shah,"Lot No 37 Blok C, Bandar Satelit Muadzam Shah, 26700 Kuantan, Pahang",0193359723,false,false,false,false,10:30 am,11:00 pm,10:30 am,11:00 pm,bandar_muadzam_shah,,,
4122,5.212467,100.613069,Bandar Serdang Kedah,"Lot No 23-A, Ground Floor, Jalan Bandar Raya Serdang, 09300 Bandar Baru, Kedah",0193315905,false,false,false,false,10:30 am,11:00 pm,10:30 am,11:00 pm,bandar_serdang_kedah,,,
4123,3.102273,101.712998,"Bandar Seri Permaisuri, Cheras","No.22A Jalan Dwitasek 1, Dataran Dwitasek, Bandar Seri Permaisuri, 56000 Kuala Lumpur",0193362344,false,true,false,false,8:00 am,11:00 pm,8:00 am,11:00 pm,bandar_seri_permaisuri_cheras,,,
4124,2.8850588,101.7917921,"Bandar Seri Putra, Bangi","B2, Ground & 1st Floor, Jalan Seri Putra 1/2, Bandar Seri Putra Bangi, 43000 Bangi, Selangor",0193376058,false,false,false,false,10:30 am,11:00 pm,10:30 am,11:00 pm,bandar_seri_putra_bangi,,,
4125,3.043467,101.792718,Bandar Sg Long,"No 9 Jalan SL 1/10 Bandar Sungai Long, 43000 Kajang, Selangor",0193376822,false,false,false,false,10:00 am,11:00 pm,10:00 am,11:00 pm,bandar_sg_long,,,
4126,5.025378,118.294234,"Bandar Sri Perdana, Lahad Datu","Lot No. 327, MDLD 7075, Bandar Sri Perdana, Phase 3, Jalan Silam, 91100 Lahad Datu, Sabah",0198885693,false,false,false,false,9:30 am,11:00 pm,9:30 am,11:00 pm,bandar_sri_perdana_lahad_datu,,,
4127,3.078274,101.710986,Bandar Tasik Selatan (TBS),"Lot 4-31 & L4-32, 4th Floor Terminal Bersepadu Selatan, 57000 Bandar Tasik Selatan, Kuala Lumpur",0193371872,false,true,false,false,8:00 am,11:00 pm,8:00 am,11:00 pm,bandar_tasik_selatan_(tbs),,,
4128,1.839834,103.625415,Bandar Tenggara,"Lot 42-43, Jalan 4/1, Taman Anggerik, Bandar Tenggara, 81440 Bandar Tenggara, Johor",0193384576,false,false,false,false,10:00 am,11:00 pm,10:00 am,11:00 pm,bandar_tenggara,,,
4129,3.15023,101.615214,Bandar Utama,"Lot G222 Ground Floor, 1 Utama Shopping Centre Lebuhraya Bandar Utama, Bandar Utama, 47800 Petaling Jaya, Selangor",0193360971,false,true,false,false,8:00 am,10:00 pm,8:00 am,10:00 pm,bandar_utama,,,
4130,5.977673,116.076055,Bandaran Berjaya,"No. 1, Jalan Bandaran Berjaya, Kota Kinabalu, 88000 Kota Kinabalu, Sabah",0198880230,true,true,false,false,12:00 am,12:00 am,12:00 am,12:00 am,bandaran_berjaya,,,
4131,6.0242281,116.1429707,Bandaran KK Utara Drive Thru,"Lot No. CL 015367254, Kg. Darau, 88450 Menggatal, Sabah",0198884504,true,true,true,false,12:00 am,12:00 am,12:00 am,12:00 am,bandaran_kk_utara_drive_thru,,,
4132,2.953319,101.75722,Bangi Utama,"Ground Floor, Bangi Utama Shopping Centre, Seksyen 1B, Jln kemajuan, 43600 Bandar Baru Bangi, Selangor",0193360971,false,false,false,false,10:00 am,10:00 pm,10:00 am,10:00 pm,bangi_utama,,,
4133,2.813546,101.501259,Banting 2,"NO 285 Jalan Sultan Abdul Samad, 42700 Banting, Selangor",0193375990,false,true,false,false,8:00 am,11:00 pm,8:00 am,11:00 pm,banting_2,,,
4134,3.463154,101.653666,Batang Kali,"NO 37 Jalan Meranti 1A, Bandar Utama Batang Kali, 44300 Batang Kali, Selangor",0193381708,false,true,false,false,8:00 am,11:00 pm,8:00 am,11:00 pm,batang_kali,,,
4135,2.243529,102.257005,Batu Berendam,"No 35 & 37 Jalan BBP 1 Taman Batu Berendam Putra, 75350 Melaka",0193366184,false,true,false,true,8:00 am,2:00 am,8:00 am,2:00 am,batu_berendam,,,
4136,4.47297,101.04024,Batu Gajah,"9 Jalan Dewangsa, 31000 Batu Gajah, Perak",0193377953,false,true,false,false,7:00 am,2:00 am,7:00 am,2:00 am,batu_gajah,,,
4137,1.513168,110.308662,Batu Kawah,"BD 106, Batu Kawah New Township, Jalan Batu Kawah, 93250 Kuching, Sarawak",0198876294,false,false,false,false,7:00 am,2:00 am,7:00 am,2:00 am,batu_kawah,,,
4138,5.389135,100.305979,Batu Lanchang,"Lot G-1 The Gallery Kompleks Perniagaan Seri Damai Medan Batu Lanchang, 11600 Pulau Pinang",0193312456,false,true,false,false,8:00 am,11:00 pm,8:00 am,11:00 pm,batu_lanchang,,,
4139,3.857172,113.717292,Batu Niah,"GF, Lot 2040 & 2041, Block 8, Sepupok New Township at Jalan Niah, Niah Land District, 98200 Niah, Sarawak.",0198877764,false,false,false,false,10:00 am,10:00 pm,10:00 am,10:00 pm,batu_niah,,,
4140,1.851779,102.925879,Batu Pahat 1,"NO 75 Jalan Rugayah 86300 Batu Pahat Johor, 86300 Batu Pahat, Johor",0193384603,false,true,false,false,7:00 am,11:00 pm,7:00 am,11:00 pm,batu_pahat_1,,,
4141,1.485368,103.761815,Batu Pahat Drive Thru,"Lot PTD 55587, Jalan Murni 1, Taman Murni, Mukim, Simpang Kanan, 83000 Batu Pahat, Johor",0193384580,true,true,true,false,12:00 am,12:00 am,12:00 am,12:00 am,batu_pahat_drive_thru,,,
4142,1.863799,102.961939,Batu Pahat Mall,"No. G05, Ground Floor, Batu Pahat Mall, 83000 Batu Pahat, Johor",0193384536,false,false,false,false,10:00 am,10:00 pm,10:00 am,10:00 pm,batu_pahat_mall,,,
4143,1.4171754,110.1525913,Bau,"Lot 262, Bau Town District, Jalan Market, 94000 Bau, Kuching, Sarawak",0198876439,false,false,false,false,9:30 am,10:00 pm,9:30 am,10:00 pm,bau,,,
4144,5.32692,100.286806,Bayan Baru,"No. 34G, Jalan Mahsuri, Bandar Baru Bayan, 11950 Bayan Baru, Pulau Pinang",0193310148,true,true,false,true,12:00 am,12:00 am,12:00 am,12:00 am,bayan_baru,,,
4145,5.32692,115.743011,Beaufort,"Ground, 1st & 2nd Floor, Shoplot No. 8, Cerah Commercial Centre Phase II, 89800 Beaufort, Sabah",0198889810,false,false,false,false,10:00 am,10:30 pm,9:30 am,10:30 pm,beaufort,,,
4146,2.277065,102.394835,"Bemban, Jasin","JC 173, Ground Floor Jalan Bunga Raya, Bandar Jasin Bestari, 77200 Bemban, Melaka",0193385842,false,false,false,false,10:30 am,11:00 pm,10:30 am,11:00 pm,bemban_jasin,,,
4147,3.521845,101.908905,Bentong,"112, Ground & 1st Floor, Jalan Ah Peng, 28700 Bentong, Pahang",0193359248,false,true,false,false,8:00 am,11:00 pm,8:00 am,11:00 pm,bentong,,,
4148,1.647136,103.258303,Benut,"No. 17-G, 17-1 & 17-2, Jalan Mutiara 2, Pusat Perniagaan Benut, 82200 Benut, Pontian, Johor",0193361080,false,false,false,false,10:30 am,11:00 pm,10:30 am,11:00 pm,benut,,,
4149,4.629939,101.127043,Bercham,"267-269, Jalan Bercham, Taman Desa Kenchana, 31400 Ipoh, Perak",0193377971,false,false,false,false,10:30 am,11:00 pm,10:30 am,11:00 pm,bercham,,,
4150,3.142621,101.71024,Berjaya Times Square,"Lot 34A, Lower Ground Berjaya Times Square, No. 1, Jalan Imbi, 55100 Kuala Lumpur",0193371061,false,false,false,false,10:00 am,10:00 pm,10:00 am,10:00 pm,berjaya_times_square,,,
4151,1.4049337,111.5356832,Betong,"Gr. Floor, Lot 1968 & 1969 on Parent Lot 1924, Block 9, Batu Api Land District, 95700 Betong, Sarawak",0198875983,false,false,false,false,9:30 am,10:00 pm,9:30 am,10:00 pm,betong,,,
4152,3.695352,101.515842,BHP Tanjung Malim,"BHP Petrol Station Lot No 4632, Hulu Bernam Timor, Batang Padang, 35900 Tanjung Malim, Perak",0193378031,true,true,true,false,12:00 am,12:00 am,12:00 am,12:00 am,bhp_tanjung_malim,,,
4153,4.110052,101.288903,Bidor,"Ground Floor, 2nd & 3rd Shoplot, No. 22 Jalan Bruseh, 35500 Bidor, Perak",0193377972,false,false,false,false,10:30 am,11:00 pm,10:30 am,11:00 pm,bidor,,,
4154,4.396863,113.993338,Bintang Plaza,"Sublot 22, G/F, Bintang Plaza, Jalan Pujut, Miri, 97000 Bintulu, Sarawak",0198879304,false,false,false,false,10:00 am,11:00 pm,10:00 am,12:00 am,bintang_plaza,,,
4155,3.171137,113.041284,Bintulu 2,"No. 3233, Bintulu Town District, Law Gek Soon Road, 97000 Bintulu, Sarawak",0198878269,false,false,false,false,9:30 am,10:00 pm,9:30 am,10:00 pm,bintulu_2,,,
4156,5.957526,116.086625,Bornion Centre,"Lot 25, Bornion Centre, Jalan Kolam, Luyang, 88300 Kota Kinabalu, Sabah",0198882247,false,false,false,false,10:00 am,11:30 am,10:00 am,11:30 am,bornion_centre,,,
4157,4.415017,114.013039,Boulevard,"UGF 1.11 Lot 2526, Boulevard Shopping Complex, 98000 Miri, Sarawak",0198878752,false,false,false,true,10:00 am,10:00 pm,9:30 am,10:45 pm,boulevard,,,
4158,1.509731,110.336007,Boulevard Mall,"GB11-GB13 Gr. Floor, Jalan Datuk Tawi Sli, 93250 Kuching, Sarawak",0198876964,false,false,false,false,10:00 am,10:00 pm,10:00 am,10:00 pm,boulevard_mall,,,
4159,5.9313007,116.0700768,"Boulevard Mall, Lintas","Lot A, Ground Floor of 5, Storey Building Boulevard Hypermarket & Departmental, Store Lintas Jata Uptownship, 88300 Penampang, Sabah",0198883083,false,false,false,false,10:00 am,10:00 pm,10:00 am,10:00 pm,boulevard_mall_lintas,,,
4161,4.491356,101.388416,"Brinchang, Cameron","Brinchang No.1A Ground & 1st Floor, Jalan Besar, Brinchang, 39100 Cameron Highlands, Pahang",0193359653,false,false,false,false,10:30 am,11:00 pm,10:30 am,11:00 pm,brinchang_cameron,,,
4162,3.146077,101.710197,Bukit Bintang,"Grd & Mezzanine Floor, No. 86-88, Jalan Bukit Bintang, 55100 Kuala Lumpur",0193370754,true,true,false,false,12:00 am,12:00 am,12:00 am,12:00 am,bukit_bintang,,,
4163,2.20784,102.660265,Bukit Gambir,"No. 4 Jalan Gambir 5, Bandar Baru Bukit Gambar, 84800 Muar, Johor",0193385159,false,false,false,false,10:00 am,11:00 pm,10:00 am,11:00 pm,bukit_gambir,,,
4164,5.334381,100.290964,Bukit Jambul,"26368-T, 3A-G-18, Kompleks Bukit Jambul, Jalan Rumbia, 11900 Pulau Pinang",0193310151,false,false,false,false,10:30 am,11:00 pm,10:30 am,11:00 pm,bukit_jambul,,,
4165,3.115063,101.527159,Bukit Jelutong,"No 7 Jalan Pelapik U8/8 Bukit Jelutong, 40150 Shah Alam, Selangor",0193361638,false,false,false,false,10:00 am,11:00 pm,10:00 am,11:00 pm,bukit_jelutong,,,
4166,3.021467,101.538337,Bukit Kemuning Drive Thru,"Lot 1, Prima D33/D, Taman Kemuning Utama, Seksyen 33, 40480 Shah Alam, Selangor",0193362005,true,true,true,false,12:00 am,12:00 am,12:00 am,12:00 am,bukit_kemuning_drive_thru,,,
4167,5.350967,100.460231,Bukit Mertajam Drive Thru,"Lot 10019, Mukim 10, Jln Song Ban Kheng, Bukit Mertajam, Seberang Prai Tengah, 14000 Bukit Mertajam, Penang",0193313545,false,true,true,false,8:00 am,11:00 pm,8:00 am,11:00 pm,bukit_mertajam_drive_thru,,,
4168,1.86531,102.939363,"Bukit Pasir, BP3","No 2 Jalan Kundang 1, Taman Bukit Pasir, 83000 Batu Pahat, Johor",0193384754,false,false,false,true,10:00 am,3:00 am,10:00 am,3:00 am,bukit_pasir_bp3,,,
4169,3.060888,101.472338,Bukit Raja,"G-32 (Ground Floor), Persiaran Bukit Raja, Bandar Baru Klang, 41150 Klang, Selangor",0193364226,false,false,false,false,10:00 am,10:00 pm,10:00 am,10:00 pm,bukit_raja,,,
4170,3.404617,101.55759,Bukit Sentosa Rawang,"NO 2, 2-1 & 2-2 Jalan Orkid 1D/2 Seksyen BS1 Bandar Bukit Sentosa, 48300 Rawang, Selangor",0193381634,false,false,false,true,10:00 am,11:00 pm,10:00 am,11:00 pm,bukit_sentosa_rawang,,,
4171,5.408805,100.370739,Butterworth,"NO 4423 & 4424 Jalan Bagan Luar 1, 12000 Butterworth, Penang",0193313570,false,true,false,false,8:00 am,11:00 pm,8:00 am,11:00 pm,butterworth,,,
4172,3.141089,101.779264,C4 Ampang,"F1.13 & F1.17-16A Ground Floor Carrefour Hypermarket Ampang, Jalan Taman Putera, 68000 Ampang, Selangor",0193375364,false,false,false,false,10:00 am,10:30 pm,10:00 am,10:30 pm,c4_ampang,,,
4173,2.999776,101.528396,C4 Bukit Rimau,"No 2 Carrefour Bukit Rimau Shopping Centre, Jalan Sungai Burung, 22/68 Section 32, 40460 Shah Alam, Selangor",0193361759,false,false,false,false,10:00 am,10:00 pm,10:00 am,10:00 pm,c4_bukit_rimau,,,
4174,5.390038,100.40801,C4 Butterworth,"Lot F2.D Ground Floor Carrefour Shopping Centre Seberang Perai, 13700 Butterworth, Penang",0193313243,false,false,false,false,10:00 am,10:00 pm,10:00 am,10:00 pm,c4_butterworth,,,
4175,3.048983,101.758386,C4 Hussein Onn,"Lot G.05, Carrefour Mall Persiaran Sua Rasa 2, Bandar Tun Hussien Onn, 43100 Kajang, Selangor",0193377827,false,false,false,true,10:00 am,10:00 pm,10:00 am,10:00 pm,c4_hussein_onn,,,
4176,3.214967,101.643967,C4 Kepong,"L1 - 028, Carrefour Jalan Metro Perdana Batu 7, Off Jalan Kepong Kepong Entrepeneur Park, 52100 Kuala Lumpur",0193374517,false,false,false,false,10:00 am,10:00 pm,10:00 am,10:00 pm,c4_kepong,,,
4177,3.069094,101.430486,C4 Klang,"Lot No.9, Ground Floor Carrefour Klang Shopping Centre, No.2 Jalan Harmonis, Off Jalan Kapar Klang, Klang, 42100 Selangor",0193363863,false,false,false,false,10:00 am,10:00 pm,10:00 am,10:00 pm,c4_klang,,,
4178,3.082733,101.58769,C4 Subang Jaya,"Lot No F2.02, F2.09 & F2.10 LG Floor Carrefour Subang, No.3 Jalan SS 16/1, 47500 Subang Jaya, Selangor",0193375092,false,false,false,false,10:00 am,10:00 pm,10:00 am,10:00 pm,c4_subang_jaya,,,
4179,3.196011,101.743169,C4 Wangsa Maju,"Lot No. F2.48 & F2.49, Ground Floor, Carrefour Shopping Centre, No 6, Jalan 8/27A, Wangsa Maju, 53300 Kuala Lumpur",0193360435,false,false,false,false,10:00 am,10:00 pm,10:00 am,10:00 pm,c4_wangsa_maju,,,
4180,3.250948,101.471265,Caltex Coalfields Drive Thru,"Caltex Ijok, Bandar Seri Coalfields, Jalan Kuala Selangor, 47000 Sungai Buloh, Selangor",0193375092,false,true,true,false,8:00 am,11:00 pm,8:00 am,11:00 pm,caltex_coalfields_drive_thru,,,
4181,1.86558,102.948477,Carrefour Batu Pahat,"Lot F1.07, No 1B Jalan Persiaran Flora Utama, Taman Flora Utama, 83000 Batu Pahat, Johor",0193384501,false,false,false,false,9:30 am,10:30 pm,9:30 am,10:30 pm,carrefour_batu_pahat,,,
4182,5.152115,119.006623,Cenderawasih,"No. 2 & 3 (Corner), Block A, Bandar Cenderawasih, FELDA Sahabat, 91150 Lahad Datu, Sabah",0198885946,false,false,false,false,10:00 am,10:00 pm,10:00 am,10:00 pm,cenderawasih,,,
4183,5.636686,100.4883,"Central Square, Sg Petani","Lot GF20, Ground Floor, Central Square, 08000 Sungai Petani, Kedah",0193315484,false,true,false,false,8:00 am,11:00 pm,8:00 am,11:00 pm,central_square_sg_petani,,,
4184,5.978627,116.071964,Centre Point,"Shoplot No. S18, S18-A, S18B, Lower Ground Floor, Centre Point, 88000 Kota Kinabalu, Sabah",0198882450,false,false,false,true,9:30 am,9:30 pm,9:30 am,9:30 pm,centre_point,,,
4185,3.138428,101.610212,Centre Point Bandar Utama,"G115, Ground Floor Centre Point, Bandar Utama, 46000 Petaling Jaya, Selangor",0193361051,false,false,false,false,10:00 am,10:00 pm,10:00 am,10:00 pm,centre_point_bandar_utama,,,
4186,6.290703,99.727788,"Changlun, Kedah","Lot 2605 GF 4ab & GF 5, Jalan Pantai Cenang Mukim Kedawang, 07000 Langkawi, Kedah",0193315054,false,true,false,false,8:00 am,11:00 pm,8:00 am,11:00 pm,changlun_kedah,,,
4187,1.86558,102.948477,Cenang Mall Langkawi,"Lot F1.07, No 1B Jalan Persiaran Flora Utama, Taman Flora Utama, 83000 Batu Pahat, Johor",0193384501,true,true,false,false,12:00 am,12:00 am,12:00 am,12:00 am,cenang_mall_langkawi,,,
4188,3.111281,101.730022,Cheras Taman Pertama,"No. 9, Jalan 2/90, Taman Pertama Cheras, 56000 Kuala Lumpur",0193371548,false,true,false,true,8:00 am,11:00 pm,8:00 am,11:00 pm,cheras_taman_pertama,,,
4189,5.96157,116.096702,City Mall,"Lot No. GA1, GA2 & GA3, Ground Floor, City Mall, Kota Kinabalu, 88000 Kota Kinabalu, Sabah",0198883020,false,false,false,false,10:00 am,10:00 pm,10:00 am,10:00 pm,city_mall,,,
4190,1.462256,103.763665,"City Square, JB","Lot J22 - J23, Level 3 City Square, Jalan Wong Ah Fook, 80300 Johor Bahru, Johor",0193317726,false,false,false,false,10:00 am,10:00 pm,10:00 am,10:00 pm,city_square_jb,,,
4191,4.598697,101.083894,Cockman,"65 Jalan Dato' Onn Jaafar, 30700 Ipoh, Perak",0193371046,true,true,false,true,12:00 am,12:00 am,12:00 am,12:00 am,cockman,,,
4192,2.920729,101.659084,Cyberjaya,"Lot 3, Cottage Walk off Persiaran APEC, Cyberjaya, 63000 Dengkil, Selangor",0193371797,false,false,false,false,10:00 am,11:00 pm,10:00 am,11:00 pm,cyberjaya,,,
4193,1.510546,103.724723,Damansara Alif Drive Thru,"Lot 413 Jalan Tampoi / Damansara Aliff, Taman Damansara Aliff, 81200 Johor Bahru, Johor",0193353079,true,true,true,false,12:00 am,12:00 am,12:00 am,12:00 am,damansara_alif_drive_thru,,,
4194,3.1985312,101.5934519,Damansara Damai,"Lot A/010, A011 GF & 1st Floor, Jalan PJU 10 Damansara Damai, 47800 Petaling Jaya, Selangor",0193360973,false,true,false,true,8:00 am,11:00 pm,8:00 am,11:00 pm,damansara_damai,,,
4195,2.190417,102.250523,Dataran Pahlawan,"Lot No. F1-11, F1-12, F1-13 & F-22, Dataran Pahlawan, Melaka Megamall, 75000 Bandar Hilir Melaka, Melaka",0193359658,false,false,false,false,10:00 am,10:00 pm,10:00 am,10:00 pm,dataran_pahlawan,,,
4196,2.979969,101.73869,De Centrum Kajang,"LG3 & LG5, De Centrum Complex, Taman Uniparks Suria, Jalan Ikram-Uniten, 43000 Kajang, Selangor",0193362213,false,false,false,false,10:30 am,11:00 pm,10:30 am,11:00 pm,de_centrum_kajang,,,
4197,2.311711,111.846934,Delta Mall,"Nos. 7,8,9 & 10 UG Floor Delta Mall, Jalan Pedada, 96000 Sibu, Sarawak",0198879384,false,false,false,false,10:00 am,10:00 pm,10:00 am,10:00 pm,delta_mall,,,
4198,2.864237,101.675821,Dengkil,"Lot No 9, Delux Business Park, 43800 Dengkil, Selangor",0193371794,false,true,false,false,8:00 am,11:00 pm,8:00 am,11:00 pm,dengkil,,,
4199,3.211276,101.616533,Desa Aman Puri,"No. 2-25, Jalan Desa 1/1, Desa Aman Puri, Kepong, 52100 Kuala Lumpur",0193377943,false,false,false,false,10:00 am,11:00 pm,10:00 am,11:00 pm,desa_aman_puri,,,
4200,3.213038,101.631932,Desa Jaya,"No. 23 & 24,JALAN 54, Desa Jaya, Kepong, 52100 Kuala Lumpur",0193374546,false,false,false,true,10:00 am,11:00 pm,10:00 am,11:00 pm,desa_jaya,,,
4201,3.147008,101.737195,Desa Pandan,"NO 12 & 14, Ground Floor, Jalan 1/76D, Desa Pandan, 55100 Kuala Lumpur",0193375196,false,true,false,true,7:00 am,3:00 am,7:00 am,3:00 am,desa_pandan,,,
4202,5.319735,100.269845,Desa Ria Sg Ara Penang,"No 306A Jalan Dato Ismail Hashim Sungai Ara Bayan Lepas, 11900 Pulau Pinang",0193312729,false,true,false,false,10:30 am,11:00 pm,10:30 am,11:00 pm,desa_ria_sg_ara_penang,,,
4203,3.161388,101.649874,Desa Sri Hartamas,"No. 1, Ground & 1st Floor, Jalan 26A/70A, Desa Sri Hartamas, 50480 Kuala Lumpur",0193361267,false,false,false,true,10:30 am,11:00 pm,10:30 am,11:00 pm,desa_sri_hartamas,,,
4204,1.553358,104.230428,Desaru,"No. 95, Jalan Jelutong 1, Taman Desaru Utama, Bandar Penawar, 81930 Kota Tinggi, Johor",0193388324,false,false,false,false,10:30 am,11:00 pm,10:30 am,11:00 pm,desaru,,,
4205,5.912172,116.102546,Donggongon,"Ground & 1st Floor, Shoplot No. 1, Block D, Donggongon, 86500 Penampang New Township, Sabah",0198880971,false,true,false,false,8:00 am,11:30 pm,8:00 am,11:30 pm,donggongon,,,
4206,4.757237,103.417176,Dungun,"Lot 3393, Jalan Yahya Ahmad, 23000 Dungun, Terengganu",0193359014,false,true,false,false,8:00 am,3:00 am,8:00 am,3:00 am,dungun,,,
4207,4.478538,114.03955,E Mart,"Lot No.2861, Block 6, KBLD, Jalan Tudan, 98100 Miri, Sarawak",0198879235,false,false,false,false,12:00 am,12:00 am,12:00 am,12:00 am,e_mart,,,
4208,3.817967,103.325514,"East Coast Mall, Kuantan","Lot No. L2-09, 10 & 11, Level 2, East Coast Mall, Jalan Putra Square 6, 25200 Kuantan, Pahang",0193359578,false,false,false,false,10:00 am,10:00 pm,10:00 am,10:00 pm,east_coast_mall_kuantan,,,
4210,1.506528,110.299549,Emart Batu Kawah,"Unit No.167, Ground Floor, Emart One Stop Shopping Mall, Batu Kawah, 93250 Kuching, Sarawak",0198877329,true,true,false,false,12:00 am,12:00 am,12:00 am,12:00 am,emart_batu_kawah,,,
4211,4.34365,113.992758,Emart Riam Miri,"Ground Floor Sublot 38 (Survey Lot 8848), Ground Floor & First Floor Sublot 39 (Survey Lot 8849), Lambir Land District, 98000 Miri, Sarawak",0198879794,true,true,false,true,10:00 am,10:00 pm,10:00 am,10:00 pm,emart_riam_miri,,,
4212,4.245805,117.882516,"Empire Building, Tawau","TB 909, Ground Floor, Empire Building, Jalan Habib Hussein, 91000 Tawau, Sabah",0198887249,true,true,false,false,9:30 am,11:00 pm,9:30 am,11:00 pm,empire_building_tawau,,,
4213,3.063595,101.694744,Endah Parade,"G-005 & G-006, Endah Parade Shopping Mall, Bandar Baru Seri Petaling, 57000 Kuala Lumpur",0193371924,false,false,false,false,10:00 am,10:00 pm,10:00 am,10:00 pm,endah_parade,,,
4214,3.060475,101.760454,ESSO Hulu Langat Drive Thru,"Lot 15922 PT 10881 Mukim and District off Hulu Langat Selangor Darul Ehsan, 43100 Hulu Langat, Selangor",0193382783,false,true,true,false,8:00 am,11:00 pm,8:00 am,11:00 pm,esso_hulu_langat_drive_thru,,,
4215,3.08728,101.542066,Extreme Park S13 Shah Alam,"Extreme Park D/T Lot 1 Shah Alam Extreme Park Jalan Lompat 13/37, Section 13, 40100 Shah Alam, Selangor",0193361637,true,true,true,false,12:00 am,12:00 am,12:00 am,12:00 am,extreme_park_s13_shah_alam,,,
4216,2.813925,101.50287,Fajar Banting,"Banting (Fajar Banting) Lot 1256, Jalan Besar, 42700 Banting, Selangor",0193375895,false,false,false,false,10:30 am,11:00 pm,10:30 am,11:00 pm,fajar_banting,,,
4217,4.877135,100.727908,Fajar Kamunting,"PT 13952 (Ground Floor), Jalan Medan Saujana, Fajar Kamunting, 34600 Kamunting, Taiping, Perak",0193371584,false,false,false,false,10:30 am,11:00 pm,10:30 am,11:00 pm,fajar_kamunting,,,
4218,4.245801,117.892229,"Fajar, Tawau","TB319, Block 38, Fajar Complex, District Tawau, 91000 Tawau, Sabah",0198887421,false,false,false,false,10:00 am,11:30 pm,10:00 am,11:30 pm,fajar_tawau,,,
4219,5.276433,115.241871,"Financial Park, Labuan","Lot C003 & D002 Ground Floor, Podium Level, Financial Park, Labuan Complex, 87000 Labuan",0198884978,false,false,false,false,10:00 am,10:00 pm,10:00 am,10:00 pm,financial_park_labuan,,,
4220,2.443322,102.20434,Freeport A'Famosa,"F&B 43, Freeport A'Famosa Outlet Village, 78000 Alor Gajah, Perak",0193484626,false,false,false,false,10:00 am,10:00 pm,10:00 am,10:00 pm,freeport_a'famosa,,,
4221,6.065845,102.238855,G-Orange Mall Drive Thru,"Lot GF-1, Wisma G-Orange, Tanjung, Batu 4 1/2, Jalan Kuala Prai, 15050 Kota Bharu, Kelantan",0193388058,false,false,true,false,10:00 am,12:00 am,10:00 am,12:00 am,g-orange_mall_drive_thru,,,
4222,1.459117,103.763291,"Galleria Kotaraya, JB","Lot No G05 & G06 Galleria Plaza Kotaraya, Jalan Terus, 80000 Johor Bahru, Johor",0193350952,false,false,false,false,10:00 am,10:00 pm,10:00 am,10:00 pm,galleria_kotaraya_jb,,,
4223,2.580482,102.611977,Gemas,"No 4616, Ground & 1st Floor, Gemas Square, 73400 Gemas, Negeri Sembilan",0193384246,false,false,false,false,10:00 am,11:00 pm,10:00 am,11:00 pm,gemas,,,
4224,2.531445,102.400354,Gemencheh,"Lot No 1A Jalan PKG 1, Pusat Komersial Gemencheh, 73200 Gemencheh, Negeri Sembilan",0193384312,false,false,false,false,10:00 am,11:00 pm,10:00 am,11:00 pm,gemencheh,,,
4225,3.19519,101.711789,Genting Klang,"No. 2,JALAN 2/50 C, Taman Setapak Indah Jaya, Off Jalan Genting Klang, 53300 Kuala Lumpur",0193370656,true,true,false,true,12:00 am,12:00 am,12:00 am,12:00 am,genting_klang,,,
4226,3.235575,101.694127,Giant Batu Caves,"Lot No. A1,Lot 10243, Ground Floor, GIANT Hypermarket, 68100 Batu Caves, Selangor",0193373734,false,false,false,false,10:00 am,11:00 pm,10:00 am,11:00 pm,giant_batu_caves,,,
4227,5.320946,100.284357,Giant Bayan Baru,"Lot G05, Ground Floor, Giant Hypermarket Bayan Baru, 11900 Pulau Pinang",0193310290,false,false,false,false,10:30 am,11:00 pm,10:30 am,11:00 pm,giant_bayan_baru,,,
4228,3.009764,101.433202,"Giant Bukit Tinggi, Klang","Lot No A1 Giant Klang Lot 83191-83192, Persiaran Batu Nilam, Bandar Bukit Tinggi, Pandamaran, 42000 Klang, Selangor",0193363605,false,false,false,false,9:30 am,11:00 pm,9:30 am,11:00 pm,giant_bukit_tinggi_klang,,,
4229,1.528028,103.815681,Giant JB (Plentong),"Lot K7, Ground Floor, Giant Hypermarket Plentong, No. 3, Jalan Masai Lama, Mukim Plentong, 81750 Masai, Johor",0193316851,false,false,false,false,10:00 am,10:30 pm,10:00 am,10:30 pm,giant_jb_(plentong),,,
4230,3.102932,101.597838,Giant Kelana Jaya,"Shop Unit 16, 17 & 18 First Floor Giant Hyper Kelana Jaya, No 33 Jalan SS6/12, SS 6, Kelana Jaya, 47301 Petaling Jaya, Selangor",0193377914,false,false,false,false,10:00 am,10:00 pm,10:00 am,10:00 pm,giant_kelana_jaya,,,
4231,3.050255,101.646382,"Giant Kinrara, Puchong","Lot No. G16, G17, G26 & G27 Giant Hypermarket Bandar Kinrara, 47100 Puchong, Selangor",0193380857,false,false,false,false,10:00 am,10:30 pm,10:00 am,10:30 pm,giant_kinrara_puchong,,,
4232,5.990062,116.125182,Giant Kolombong,"Lot F16 & F17, Giant Hypermarket Kolombong, No. CL 015484974, CL 015484983 & CL 015473211, 5 1/2, Mile Jalan Tuaran, Kolombong, 88450 Kota Kinabalu, Sabah",0198883194,false,false,false,false,10:00 am,10:00 pm,9:30 am,10:00 pm,giant_kolombong,,,
4233,3.156511,101.59665,Giant Kota Damansara,"No F-15 Giant Hypermarket Kota Damansara No 16, Jalan PJU 5/1, 47810 Petaling Jaya, Selangor",0193363056,false,false,false,false,10:00 am,10:00 pm,10:00 am,10:00 pm,giant_kota_damansara,,,
4234,5.310637,103.127945,Giant Kuala Terengganu,"Lot No: F 5, F 6, F 7, F 8, Mezzanine Floor, Giant Hypermarket, 21100 Kuala Terengganu, Terengganu",0193358996,false,false,false,false,10:00 am,11:00 pm,10:00 am,11:00 pm,giant_kuala_terengganu,,,
4235,3.792251,103.310264,Giant Kuantan,"Lot No A 10 Giant Kuantan Lot No 5197 Jalan Tanah Putih, Section 124, Kuantan, 25100 Kuantan, Pahang",0193359423,false,false,false,false,10:00 am,11:00 pm,10:00 am,11:00 pm,giant_kuantan,,,
4236,4.212707,100.668801,Giant Manjung,"Lot A11/A12, Ground floor, Giant Superstore, 32040 Sri Manjung, Perak",0193378682,false,false,false,false,10:00 am,10:30 pm,10:00 am,10:30 pm,giant_manjung,,,
4237,2.22728,102.253609,Giant Melaka,"Lot G24, G25 & G26 , Giant Hypermarket Melaka, PT No. 5895 to 5951 & 5967, Tmn Bachang Utama, 75350 Mukim Bachang, Melaka",0193366185,false,false,false,false,10:30 am,10:00 pm,10:30 am,10:00 pm,giant_melaka,,,
4238,2.063159,102.55691,Giant Muar,"LOT G26 & G27, GIANT HYPERMARKET MUAR, Jalan Kesang, 84000 Muar, Johor",0193384543,false,false,false,false,10:30 am,10:00 pm,10:30 am,10:00 pm,giant_muar,,,
4239,2.81244,101.79153,Giant Nilai,"No G 22, 23, 24, 25, Giant Grand Union Nilai, 71800 Nilai, Negeri Sembilan",0193316289,false,false,false,false,9:30 am,11:00 pm,9:30 am,11:00 pm,giant_nilai,,,
4240,1.582488,110.331732,Giant Petra Jaya,"Lot No. G2 & G3, Giant Hypermarket Petra Jaya, Lot No. 5688 & 10166, Section No. 65, District of Kuching Town Land, 93050 Kuching, Sarawak",0198877825,false,false,false,false,10:00 am,10:00 pm,10:00 am,10:00 pm,giant_petra_jaya,,,
4241,3.026004,101.618067,"Giant Puteri, Puchong","Lot F20, F21, F22 & F23 Mezzanine Floor, Giant Superstore Bdr Puteri, No 7 Jalan Puteri 1/1, 47100 Bandar Puteri Puchong, Selangor",0193381074,false,false,false,false,9:30 am,11:00 pm,9:30 am,11:00 pm,giant_puteri_puchong,,,
4242,2.702553,101.984758,Giant Senawang,"Lot No A15, A16, A17 & A18, Outer Mall & B1, B2, B3 & B4, Inner Mall, Giant Hypermarket Senawang, Lot 1413, Jalan Senawang, Mukim Ampangan, 70450 Seremban, Negeri Sembilan",0193316284,false,false,false,false,9:00 am,11:00 pm,9:00 am,11:00 pm,giant_senawang,,,
4243,3.071716,101.518016,Giant Shah Alam,"Lot A38, A39, Part of A40 & A41, B1-B4, Giant Hypermarket Stadium Shah Alam, 47500 Shah Alam, Selangor",0193361647,false,false,false,false,9:30 am,11:00 pm,9:30 am,11:00 pm,giant_shah_alam,,,
4244,5.615776,100.472146,Giant Sungai Petani,"No A23, A26 , Giant Hypermarket Sungai Petani Jalan Bakar Arang, 08000 Sungai Petani, Kedah",0193315074,false,false,false,false,9:30 am,11:00 pm,9:30 am,11:00 pm,giant_sungai_petani,,,
4245,4.863447,100.707942,Giant Taiping,"Lot A10 & A11, Jalan Perusahaan 3, Kawasan Perusahaan Kamunting 3, Kamunting Raya, 34600 Kamunting, Taiping, Perak",0193378594,false,false,false,false,10:00 am,10:00 pm,10:00 am,10:00 pm,giant_taiping,,,
4246,5.392001,103.0815792,Gong Badak Drive Thru,"Lot No 9943, Jalan Tengku Ampuan Intan Zaharah, Gong Badak, Mukim Kuala Nerus, 21300 Kuala Terengganu, Terengganu",0193359008,true,true,true,false,12:00 am,12:00 am,12:00 am,12:00 am,gong_badak_drive_thru,,,
4247,4.4745907,101.1662485,Gopeng,"No. 72 Jalan Tasik, 31600 Gopeng, Perak",0193372349,false,false,false,false,10:30 am,11:00 pm,10:30 am,11:00 pm,gopeng,,,
4248,5.927773,116.07676,Grand Millenium,"Lot 11, Plaza Grand Millenium (Corner Lot-Adjacent to Main Road of Penampang New Bypass), 89500 Kota Kinabalu, Sabah",0198881994,false,false,false,false,10:00 am,11:00 am,10:00 am,11:00 am,grand_millenium,,,
4249,5.405827,100.302865,Greenlane Penang Drive Thru,"Lot 559 Jalan Masjid Negeri, Greenlane, 11500 Pulau Pinang",0193312075,true,true,true,false,12:00 am,12:00 am,12:00 am,12:00 am,greenlane_penang_drive_thru,,,
4250,5.431165,101.12898,"Grik, Perak","No. 17 Jalan Tun Bija Diraja, 33300 Grik, Perak",0193373051,false,false,false,false,10:30 am,11:00 pm,10:30 am,11:00 pm,grik_perak,,,
4251,4.86283,101.959048,Gua Musang Drive Thru,"PT 12632 Jajahan Gua Musang, 18300 Gua Musang, Kelantan",0193370741,true,true,true,false,12:00 am,12:00 am,12:00 am,12:00 am,gua_musang_drive_thru,,,
4252,4.571891,101.112909,Gunung Rapat Drive Thru,"Lot 36643 Jalan Raja Dr Nazrin Shah, 31350 Ipoh, Perak",0193378919,true,true,true,false,12:00 am,12:00 am,12:00 am,12:00 am,gunung_rapat_drive_thru,,,
4253,5.810073,100.478744,"Gurun 2, Kedah","Gurun No 18/F Jalan Raya Gurun Gurun, 08300 Gurun, Kedah",0193315766,false,false,false,false,10:30 am,11:00 pm,10:30 am,11:00 pm,gurun_2_kedah,,,
4255,1.488498,103.759808,Holiday Plaza,"LG 68, LG 113-LG 116, LG 140-LG 144, Holiday Plaza, Jalan Dato Sulaiman, 80250 Johor Bahru, Johor",0193316754,false,false,false,false,10:00 am,12:00 am,10:00 am,12:00 am,holiday_plaza,,,
4256,3.8936244,100.936918,Hutan Melintang Perak,"Lot 4806 Taman Desa Bersatu, 36400 Hutan Melintang, Perak",0193372179,false,false,false,false,10:30 am,11:00 pm,10:30 am,11:00 pm,hutan_melintang_perak,,,
4257,3.066225,101.483347,I-City Shah Alam Section 7,"No A1–11–G, Ground Floor and 1st Floor, Jalan Multimedia 7/AH, City Park, I-City, 40000 Shah Alam, Selangor",0193361629,false,false,false,false,10:00 am,11:00 pm,10:00 am,11:00 pm,i-city_shah_alam_section_7,,,
4258,3.314326,101.411297,Ijok,"No 27, Jalan Sejati, Taman Sejati, 15000 Ijok, Selangor",0193364431,false,false,false,false,10:30 am,11:00 pm,10:30 am,11:00 pm,ijok,,,
4259,4.399644,113.990056,Imperial Mall,"Lot 1.11, Imperial Mall, Jalan Merpati, 98000 Miri, Sarawak",0198878640,false,false,false,false,9:30 am,10:00 pm,9:30 am,10:30 am,imperial_mall,,,
4260,3.763385,103.220182,Indera Mahkota Drive Thru,"Lot PT118445, Mukim Kuala Kuantan, 25200 Indera Mahkota, Daerah Kuantan, Pahang",0193386080,true,true,true,false,12:00 am,12:00 am,12:00 am,12:00 am,indera_mahkota_drive_thru,,,
4261,5.387332,100.386179,Inderawasih,"Ground & First Floor No.12, Medan Kikik Satu Taman Inderawasih, 13600 Prai, Penang",0193313592,false,false,false,true,10:30 am,11:00 pm,10:30 am,11:00 pm,inderawasih,,,
4262,2.969779,101.713016,"IOI City Mall, Putrajaya","LG060 & LG062, Lower Ground Floor, IOI City Mall, 62502 Putrajaya",0193373437,false,false,false,false,10:00 am,10:00 pm,10:00 am,10:00 pm,ioi_city_mall_putrajaya,,,
4263,1.647894,103.626844,IOI Kulai,"Lot G21, Ground Floor, IOI Mall Bandar Putra Senai, 81000 Kulai, Johor",0193317418,false,false,false,false,10:30 am,10:00 pm,10:30 am,10:00 pm,ioi_kulai,,,
4264,3.04593,101.618257,"IOI Mall, Puchong","G20 & G21, Ground Floor, IOI Mall Puchong Jaya, 47100 Puchong, Selangor",0193381270,false,false,false,false,10:00 am,10:30 pm,10:00 am,10:30 pm,ioi_mall_puchong,,,
4265,4.611969,101.108218,Ipoh Garden,"No. 79 Jalan Dato' Lau Pak Khuan, Ipoh Garden, 31400 Ipoh, Perak",0193379267,false,true,false,false,7:00 am,2:00 am,7:00 am,2:00 am,ipoh_garden,,,
4266,5.378488,100.39974,Jalan Baru Drive Thru,"Lot No. 671, Mukim 6, Jalan Baru, Seberang Perai Tengah, 13600 Bukit Mertajam, Penang",0193385310,true,true,true,false,12:00 am,12:00 am,12:00 am,12:00 am,jalan_baru_drive_thru,,,
4267,4.2445108,117.8881363,"Jalan Masjid, Tawau","Ground Floor, TB 254A, Jalan Masjid, 91000 Tawau, Sabah",0198887308,false,false,false,false,12:00 am,12:00 am,12:00 am,12:00 am,jalan_masjid_tawau,,,
4268,5.839297,118.119084,"Jalan Pasar, Sandakan Harbour","Lot 21 & 22, Ground & 1st Floor, Sandakan Harbour Square, 90000 Sandakan, Sabah",0198887134,false,false,false,false,8:30 am,11:00 pm,8:30 am,11:00 pm,jalan_pasar_sandakan_harbour,,,
4269,3.145087,101.698622,Jalan Sultan,"No. 117, Jalan Sultan, 50000 Kuala Lumpur",0193362586,false,true,false,false,8:00 am,11:00 pm,8:00 am,11:00 pm,jalan_sultan,,,
4270,3.1486346,101.6966751,Jalan Tun Perak,"No. 19 & 21, Ground & Mezz. Floor, Jalan Tun Perak, 50050 Kuala Lumpur",0193361254,false,true,false,false,8:00 am,11:00 pm,8:00 am,11:00 pm,jalan_tun_perak,,,
4271,3.118852,101.648232,Jalan Universiti Drive Thru,"Lot 47 (PT 28), Lorong Universiti A, Section 16, 59200 Petaling Jaya, Kuala Lumpur",0193382750,true,true,true,false,12:00 am,12:00 am,12:00 am,12:00 am,jalan_universiti_drive_thru,,,
4272,2.312102,102.432098,Jasin,"JA 9932, Bandar Baru Jasin 3, Jasin, 77000 Melaka",0193366153,false,true,false,false,8:00 am,11:00 pm,8:00 am,11:00 pm,jasin,,,
4273,1.463658,103.763981,JB Sentral,"Lot 3 & 7 Main Hall, JB Sentral, 80000 Johor Bahru, Johor",0193353543,true,true,false,false,12:00 am,12:00 am,12:00 am,12:00 am,jb_sentral,,,
4274,1.463538,103.76292,"JBCC Komtar, JB","307C, Level 3, Komtar JBCC, Jalan Wong Ah Fook, 80000 Johor Bahru, Johor",0193355366,false,false,false,false,10:00 am,10:00 pm,10:00 am,10:00 pm,jbcc_komtar_jb,,,
4275,2.437662,102.684104,Jementah,"No. 39-G & 39-1, Jalan Muar, 85200 Jementah, Johor",0193364427,false,false,false,false,10:30 am,11:00 pm,10:30 am,11:00 pm,jementah,,,
4276,3.768694,102.546084,Jengka,"No 35 & 37, Lorong Baiduri 1 Nadikota, 26400 Bandar Jengka, Pahang",0193374372,false,false,false,false,10:30 am,11:00 pm,10:30 am,11:00 pm,jengka,,,
4277,2.874042,101.500826,Jenjarom,"No. 23, Jalan 2/1, Taman Sri Jaromas, 42600 Jenjarom, Selangor",0193382750,false,false,false,false,10:30 am,11:00 pm,10:30 am,11:00 pm,jenjarom,,,
4278,3.937285,102.360459,Jerantut,"1758, Jalan Dewangsa , Bandar Baru Jerantut, 27000 Jerantut, Pahang",0193359637,false,true,false,false,10:00 am,11:00 pm,10:00 am,11:00 pm,jerantut,,,
4279,5.738109,102.495937,Jerteh,"No 463, Lot 369, Jalan Besar, 22000 Jerteh, Terengganu",0193359096,false,true,false,false,8:00 am,12:00 am,8:00 am,12:00 am,jerteh,,,
4280,6.264912,100.419181,Jitra,"Jitra No. 5, Bangunan Joota Brothers, Jalan Sg Korok, 06000 Jitra, Kedah",0193314846,false,false,false,false,10:30 am,11:00 pm,10:30 am,11:00 pm,jitra,,,
4281,2.976954,101.465825,Johan Setia Drive Thru,"Lot 15049, (PM 1584), Kg Johan Setia, Jalan Klang Banting, Mukim Klang, 41200 Daerah Klang, Selangor",0193364195,true,true,true,false,12:00 am,12:00 am,12:00 am,12:00 am,johan_setia_drive_thru,,,
4282,1.542375,103.802915,Johor Jaya,"No 96, Jln Dedap 4 Taman Johor Jaya, Taman Johor Jaya, 81100 Johor Bahru, Johor",0193316774,false,false,false,true,10:30 am,11:00 pm,10:30 am,11:00 pm,johor_jaya,,,
4283,5.337707,100.42947,Juru Auto City,"Drive Thru Auto City Juru, Unit 10, Highway Auto, North South Highway, Juru Interchange, Prai, 13600 Penang",0193313916,true,true,true,false,12:00 am,12:00 am,12:00 am,12:00 am,juru_auto_city,,,
4284,3.03351,101.765008,Jusco Cheras Selatan,"Lot No. G47, Ground Floor, Jusco Cheras Selatan, Shopping Mall Cheras, 56100 Kuala Lumpur",0193371567,false,false,false,false,10:00 am,10:00 pm,10:00 am,10:00 pm,jusco_cheras_selatan,,,
4285,2.994223,101.674827,Jusco Equine Park,"LG10 AEON Taman Equine Shopping Centre, 43300 Seri Kembangan, Selangor",0193382116,false,false,false,true,10:00 am,10:30 pm,10:00 am,10:30 pm,jusco_equine_park,,,
4286,1.4959171,103.8166115,Jusco Permas Jaya,"Lot G25, Ground Floor Jusco Permas Jaya Shopping Centre, No. 1, Jalan Permas Utara, Bandar Baru Permas Jaya, 81750 Masai, Johor",0193350322,false,false,false,false,10:00 am,10:30 pm,10:00 am,10:30 pm,jusco_permas_jaya,,,
4287,3.213628,101.638953,Jusco Prima Kepong,"Lot No F22, 1st Floor, Jusco Metro Prima Shopping Centre, 52100 Kepong, Kuala Lumpur.",0193377904,false,false,false,false,10:00 am,10:00 pm,10:00 am,10:00 pm,jusco_prima_kepong,,,
4288,2.700378,101.912088,Jusco Seremban 2,"Lot G-45, Ground Floor, Jaya Jusco Seremban 2 Shopping Centre, 112 Persiaran S2 B1, Seremban 2, 70300 Seremban, Negeri Sembilan",0193316324,false,false,false,false,10:00 am,10:00 pm,10:00 am,10:00 pm,jusco_seremban_2,,,
4289,1.542751,103.629072,Jusco Taman Universiti,"Lot LG15, Jaya Jusco Taman University Shopping Center, Taman Universiti, 81300 Johor Bahru, Johor",0193317874,false,false,false,false,10:30 am,10:30 pm,10:30 am,10:30 pm,jusco_taman_universiti,,,
4290,2.062988,102.556112,K-Mart Muar,"Lot No 3153, K Mart Complex, Jalan Kesang, 84000 Muar, Johor",0193385103,false,false,false,false,10:30 am,11:00 pm,10:30 am,11:00 pm,k-mart_muar,,,
4291,2.992093,101.788783,Kajang 1,"No 18 & 20, Jalan Sulaiman, 43000 Kajang, Selangor",0193376870,false,true,false,true,8:00 am,11:00 pm,8:00 am,11:00 pm,kajang_1,,,
4292,2.932948,101.855088,Kajang Drive Thru,"Lot P.T 35855 Jalan Semenyih, 43000 Kajang, Selangor",0193376951,true,true,true,false,12:00 am,12:00 am,12:00 am,12:00 am,kajang_drive_thru,,,
4293,4.31478,101.152289,Kampar,"158 Jalan Idris, 31900 Kampar, Perak",0193379350,false,false,false,false,10:30 am,11:00 pm,10:30 am,11:00 pm,kampar,,,
4294,5.980227,116.074204,Kampung Air,"Ground & First Floor, No. 1, Jalan Tugu, Kampung Air, 88000 Kota Kinabalu, Sabah",0198881479,true,true,false,true,12:00 am,12:00 am,12:00 am,12:00 am,kampung_air,,,
4295,4.893465,100.724977,Kamunting,"No 1, Jalan Medan Kamunting Jaya, Medan Kamunting Jaya, 34600 Kamunting, Perak",0193371355,false,true,false,false,8:00 am,11:00 pm,8:00 am,11:00 pm,kamunting,,,
4296,6.435947,100.193963,Kangar,"No 17, Jalan Bukit Lagi, 01000 Kangar, Perlis",0193316151,false,true,false,false,8:00 am,11:00 pm,8:00 am,11:00 pm,kangar,,,
4297,6.439208,100.195688,Kangar 2,"No. 16 & 18, Jalan Penjara, 01000 Kangar, Perlis",0193316195,true,true,false,false,12:00 am,12:00 am,12:00 am,12:00 am,kangar_2,,,
4298,3.138858,101.371072,Kapar,"No.222 (PT 1278), Jalan Besar / KU 13, Pekan Kapar, 42200 Klang, Selangor",0193364016,false,true,false,false,8:00 am,2:00 am,8:00 am,2:00 am,kapar,,,
4299,2.0163169,112.937952,Kapit,"No 116, Lot 510, Ground & First Floor, Jalan Temenggong Jugah, 96800 Kapit, Sarawak",0198876045,false,false,false,false,10:00 am,10:00 pm,10:00 am,10:00 pm,kapit,,,
4300,3.413782,102.034825,Karak,"No. 42, Jalan Besar Karak, 28600 Karak, Pahang",0193359279,false,false,false,false,10:30 am,11:00 pm,10:30 am,11:00 pm,karak,,,
4301,3.110682,101.59988,Kelana Jaya,"Ground Floor, No.16, Jalan SS 6/3, Kelana Jaya, 47301 Petaling Jaya, Selangor",0193380073,false,false,false,true,10:00 am,11:30 pm,10:00 am,11:30 pm,kelana_jaya,,,
4302,4.232895,103.423948,Kemaman,"K 53, Business Centre, Kemaman Centre Point, Jalan Lebai Saras, 24000 Cukai, Kemaman, Terengganu",0193358840,false,false,false,false,10:00 am,12:00 am,10:00 am,12:00 am,kemaman,,,
4303,3.135898,102.363047,Kemayan,"Lot 27-1 & 29-1, Ground Floor Block F, Jalan Sentral Kemayan 1, Sentral Kemayan, 28380 Kemayan, Pahang",0193360914,false,false,false,false,10:30 am,11:00 pm,10:30 am,11:00 pm,kemayan,,,
4304,5.333176,116.152907,Keningau,"TL 81, Jalan Apin-apin, 89000 Keningau, Sabah",0198884601,false,false,false,false,9:00 am,12:00 am,9:00 am,12:00 am,keningau,,,
4305,5.51539,100.430313,Kepala Batas 2,"No 2 Lorong Usahawan 2, Pusat Perniagaan Kepala Batas, 03200 Kepala Batas, Penang",0193313269,true,true,false,true,12:00 am,12:00 am,12:00 am,12:00 am,kepala_batas_2,,,
4306,3.2129788,101.6415391,Kepong Drive Thru,"No. 15144, Jalan Kepong, Batu 6 1/2, 52100 Kuala Lumpur",0193377910,true,true,true,false,12:00 am,12:00 am,12:00 am,12:00 am,kepong_drive_thru,,,
4307,1.486993,110.34165,KIA,"Level 3 L11, Lapangan Terbang Antarabangsa Kuching, 93250 Kuching, Sarawak",0198876706,false,true,false,false,5:00 am,11:30 pm,5:00 am,11:30 pm,kia,,,
4308,3.2664001,113.100235,Kidurong,"Ground Floor of Sublot 73 and Ground Floor & 1st Floor of Sublot 74, Kidurong Commercial Centre, Sungai Plan Bintulu, 97000 Sri Aman, Sarawak",0198879864,false,false,false,false,9:30 am,10:00 pm,9:30 am,10:00 pm,kidurong,,,
4309,4.386415,103.453212,Kijal,"10 Persiaran Melor, Kijal Beach Resort, 24100 Kijal, Terengganu",0193358991,false,false,false,false,10:30 am,11:00 pm,10:30 am,11:00 pm,kijal,,,
4310,5.588787,117.846057,Kinabatangan,"Lot No. B1, Kota Kinabatangan, Shophouse, 90200 Kota Kinabatangan, Sabah",0198887149,false,false,false,false,9:30 am,10:00 pm,9:30 am,10:00 pm,kinabatangan,,,
4311,4.613828,101.118195,Kinta City,"Lot G33, Ground Level, Kinta City Shopping Centre, 2, Jalan Teh Lean Swee, Off Jalan Sultan Azlan Shah Utara, 31400 Ipoh, Perak",0193371518,false,false,false,true,10:00 am,11:00 pm,10:00 am,11:00 pm,kinta_city,,,
4312,1.55494,110.339845,KIS,"S33, Ground Floor, Kompleks Islam Sarawak, Off Jalan P. Ramlee, 93400 Kuching, Sarawak",0198877230,false,false,false,true,10:00 am,10:00 pm,10:00 am,10:00 pm,kis,,,
4313,5.969878,116.066046,KK Times Square,"Lot No. B-10/11, Basement Floor, KK Times Square, Jalan Coastal, 88100 Kota Kinabalu, Sabah",0198884108,false,false,false,false,10:00 am,10:00 pm,10:00 am,10:00 pm,kk_times_square,,,
4314,5.923214,116.050837,KKIA (T1),"Lot No. L1L04, Level 1, Arrival Landside (Terminal 1, ETB), Kota Kinabalu International Airport, 88200 Kota Kinabalu, Sabah",0198883467,false,true,false,false,5:30 am,12:00 am,5:30 am,12:00 am,kkia_(t1),,,
4315,3.134008,101.686444,KL Sentral,"Unit 18,19 & 20, Level 2, Station Sentral Kuala Lumpur, Jalan Tun Sambathan, 50470 Kuala Lumpur",0193359902,false,true,false,false,7:00 am,10:30 pm,7:00 am,10:30 pm,kl_sentral,,,
4316,3.049692,101.447599,Klang 1,"No 24, Jalan Taiping, 41400 Klang, Selangor",0193363790,false,true,false,false,7:00 am,3:00 am,7:00 am,3:00 am,klang_1,,,
4317,3.048386,101.449267,Klang 2,"No 10, Jalan Pos Baru, 41400 Klang, Selangor",0193364229,false,false,false,false,9:30 am,10:00 pm,9:30 am,10:00 pm,klang_2,,,
4318,3.079615,101.421007,Klang Utama,"G - 2, Klang Utama Shopping Centre, Jalan Sg Buloh 14, Taman Klang Utama, 41000 Klang, Selangor",0193363870,false,false,false,false,10:00 am,10:00 pm,10:00 am,10:00 pm,klang_utama,,,
4320,2.221383,102.18321,Klebang,"G &1st Floor No. 24, Jalan Nirwana 2 Taman Nirwana, Klebang, 76400 Melaka",0193366259,false,false,false,false,10:30 am,11:00 pm,10:30 am,11:00 pm,klebang,,,
4321,2.75394,101.70559,KLIA,"Lot MTBD 16, 16A & 15K, Main Terminal Building, Departure Level, Kuala Lumpur International Airport (KLIA) 64000 Sepang, 64000 Sepang, Selangor",0193371771,true,true,false,false,12:00 am,12:00 am,12:00 am,12:00 am,klia,,,
4322,2.744018,101.686486,KLIA2 Arrival Hall,"Lot No. L2-20, L2-22, Arrivel Level, KLIA2, 64000 Sepang, Selangor",0193371721,true,true,false,false,12:00 am,12:00 am,12:00 am,12:00 am,klia2_arrival_hall,,,
4323,2.753705,101.705646,KLIA2 Depature Hall,"Lot No. S2-3-L08, Departure Level Public Concourse KLIA2, 6400 Sepang, Selangor",0193371745,true,true,false,false,12:00 am,12:00 am,12:00 am,12:00 am,klia2_depature_hall,,,
4324,2.033543,103.320727,Kluang 1,"No 15 Jalan Dato Haji Hassan Yunos, 86000 Kluang, Johor",0193384689,false,true,false,true,8:00 am,2:00 am,8:00 am,2:00 am,kluang_1,,,
4325,2.018495,103.301354,Kluang 2,"No 31, Jln Intan 2/1, Taman Intan, 86000 Kluang, Johor",0193384595,false,false,false,false,10:30 am,11:00 pm,10:30 am,11:00 pm,kluang_2,,,
4326,2.028831,103.315359,Kluang Mall 2,"Lot LG-09, & LG-10, Kluang Mall, Jalan Rambutan, 86000 Kluang, Johor",0193384550,false,false,false,false,10:00 am,11:00 pm,10:00 am,11:00 pm,kluang_mall_2,,,
4327,2.036081,103.320464,Kluang Parade,"K1-5, Ground Floor, Kluang Parade, Jalan Sentul, 86000 Kluang, Johor",0193385109,false,false,false,false,10:00 am,10:00 pm,10:00 am,10:00 pm,kluang_parade,,,
4328,5.914985,102.245692,Kok Lanas Drive Thru,"Lot PT 851,Kedai Kok Lanas, 16450 Ketereh, Kota Bharu, Kelantan.",0193358756,true,true,true,false,12:00 am,12:00 am,12:00 am,12:00 am,kok_lanas_drive_thru,,,
4329,3.202564,101.67243,Kok Lian,"No,32, Jalan Batu Ambar, Tmn Kok Lian, 51200 Kuala Lumpur",0193362658,false,false,false,false,10:00 am,11:00 pm,10:00 am,11:00 pm,kok_lian,,,
4330,5.970494,116.074865,Kompleks Karamunsing,"Lot G84, Ground Floor, Kompleks Karamunsing, 88100 Kota Kinabalu, Sabah",0198882114,false,false,false,false,10:00 am,10:00 pm,10:00 am,10:00 pm,kompleks_karamunsing,,,
4331,3.209539,101.563828,Kompleks Sungai Buloh,"G-09, G-10, G-11, G-11A, G-12, G-34, G-35 Grd Floor, Pasaraya Hiong Kong, No 2, Bandar Baru Sg Buloh, Seksyen U 20, 47000 Shah Alam, Selangor",0193363352,false,false,false,false,10:30 am,10:00 pm,10:30 am,10:00 pm,kompleks_sungai_buloh,,,
4332,5.415775,100.331124,Komtar,"Unit B 11, 3.07 Second Floor, Kompleks Tun Abdul Razak, 10000 Pulau Pinang",0193312107,false,true,false,false,9:00 am,10:00 pm,9:00 am,10:00 pm,komtar,,,
4333,6.355222,116.429886,Kota Belud,"Ground & 1st Floor, Shop 30, 4-Storey Corner, Jalan Keruak, Pekan Kota Belud at TL.037500664, 88450 Kota Kinabalu, Sabah",0198884692,false,false,false,false,9:30 am,10:30 pm,9:30 am,10:30 pm,kota_belud,,,
4334,6.130495,102.241082,Kota Bharu,"Ground & Mezzanine Floors, No 396 & 397, Jln Pintu Pong, 15000 Kota Bharu, Kelantan",0193357174,false,false,false,false,8:00 am,12:00 am,8:00 am,12:00 am,kota_bharu,,,
4335,6.128645,102.234763,Kota Bharu 2,"Ground & First Floors, Menara Perbadanan, Jalan Tengku Petra Semerak, 15000 Kota Bahru, Kelantan",0193357022,false,false,false,true,10:30 am,11:00 pm,10:30 am,11:00 pm,kota_bharu_2,,,
4336,6.169986,102.292098,Kota Bharu Airport,"Mezzanine Floor, Sultan Ismail Petra Airport Kota Bharu 16100 Kelantan, 15000 Kota Bahru, Kelantan",0193357023,false,true,false,false,7:00 am,11:30 pm,7:00 am,11:30 pm,kota_bharu_airport,,,
4337,6.117261,102.241619,Kota Bharu Mall,"Lot No 23 & 23A ( GroundFloor) KB Mall, Section 16 Jalan Hamzah Kota Bharu, 15050 Kota Bharu",0193357027,false,false,false,false,10:00 am,10:30 pm,10:00 am,10:30 pm,kota_bharu_mall,,,
4338,3.160596,101.574754,Kota Damansara Drive Thru,"Jalan Cecawi 6/18, Seksyen 6, Kota Damansara, 47810 Petaling Jaya, Selangor",0193363122,true,true,true,false,12:00 am,12:00 am,12:00 am,12:00 am,kota_damansara_drive_thru,,,
4339,6.494828,116.768348,Kota Marudu,"Lot No. 1, Jalan Lotong, 89108, Kota Marudu, Sabah",0198884763,false,false,false,false,9:30 am,11:00 pm,9:30 am,11:00 pm,kota_marudu,,,
4340,1.461203,110.431179,Kota Samarahan,"Gr.Floor, Survey Lot 5350, Lots 2280 & 3170, Block 1 Samarahan Land District, 94300 Kota Samarahan, Kuching, Sarawak",0198879592,false,false,false,false,9:00 am,11:00 pm,9:00 am,11:00 pm,kota_samarahan,,,
4341,1.469557,110.329237,Kota Sentosa,"Lot 1965, Ground & First Floor, Cinmuk Commercial Centre, Kota Sentosa, 93250 Kuching, Sarawak",0198877352,false,false,false,false,9:30 am,11:00 pm,9:30 am,11:00 pm,kota_sentosa,,,
4342,1.730919,103.901442,Kota Tinggi,"No 37, Jln Mawai, 81900 Kota Tinggi, Johor",0193384593,true,true,false,false,12:00 am,12:00 am,12:00 am,12:00 am,kota_tinggi,,,
4343,1.485379,103.762621,"KSL City Mall, Johor","LG 37 & LG 45, LG Floor, KSL City Mall, Jalan Serigala, Taman Abad, 80250 Johor Bahru, Johor",0193357004,false,false,false,false,10:00 am,11:00 pm,10:00 am,11:00 pm,ksl_city_mall_johor,,,
4344,6.327071,99.840336,"Kuah, Langkawi","D Langkawi Island Mall 45, Arked Pokok Assam, Langkawi Mall, Kuah, 07000 Pulau Langkawi, Kedah",0193315028,true,true,false,false,12:00 am,12:00 am,12:00 am,12:00 am,kuah_langkawi,,,
4345,5.069135,102.997103,Kuala Berang,"Lot PT 6970, Taman Sungai Bajar, Sungai Bajar Mukim Kuala Berang, 21700 Hulu Terengganu, Terengganu",0193359144,false,false,false,false,10:30 am,11:00 pm,10:30 am,11:00 pm,kuala_berang,,,
4346,4.769413,100.940237,Kuala Kangsar,"Ground Floor, No 70-D, Jalan Kangsar, 33000 Kuala Kangsar, Perak",0193379128,true,true,false,false,12:00 am,12:00 am,12:00 am,12:00 am,kuala_kangsar,,,
4347,5.60893,100.745657,Kuala Ketil Kedah,"No 22A & 22B Lot No 3838, Tingkat Bangunan PKNK, Jalan Baling, 09300 Kuala Ketil, Kedah",0193316042,false,false,false,false,9:30 am,11:30 pm,9:30 am,11:30 pm,kuala_ketil_kedah,,,
4348,2.933516,102.065614,Kuala Klawang,"Lot No 8 Jalan UA1, Taman Undang Abdullah, 71600 Kuala Klawang, Jelebu, Negeri Sembilan",0193384172,false,false,false,false,10:00 am,11:00 pm,10:00 am,11:00 pm,kuala_klawang,,,
4349,5.54625,102.200558,Kuala Krai,"Lot 3092 & 3093 Grd Floor Jalan Besar Guchil, 18000 Kuala Krai, Kelantan",0193358221,false,false,false,false,10:00 am,11:00 pm,10:00 am,11:00 pm,kuala_krai,,,
4350,4.18468,102.055341,Kuala Lipis,"No:5J, Jln Pekeliling, 27300 Kuala Lipis, Pahang",0193359640,false,false,false,false,10:30 am,11:00 pm,10:30 am,11:00 pm,kuala_lipis,,,
4351,6.258124,100.609488,Kuala Nerang,"6,7,8,19 & 20 Jalan Semeliang Pekan Baru, 06300 Kuala Nerang, Kedah",0193316021,false,false,false,false,10:00 am,10:00 pm,10:00 am,10:00 pm,kuala_nerang,,,
4352,6.398466,100.129395,Kuala Perlis,"No 9. Persiaran Putra Timur 1, Kuala Perlis, 01000 Kuala Perlis, Perlis",0193316128,false,false,false,false,10:00 am,11:00 pm,10:00 am,11:00 pm,kuala_perlis,,,
4353,2.737256,102.246151,Kuala Pilah,"No. 907, Jalan Raja Melewar, 72000 Kuala Pilah, Negeri Sembilan",0193383660,false,false,false,false,10:00 am,11:00 pm,10:00 am,11:00 pm,kuala_pilah,,,
4354,3.330186,101.257095,Kuala Selangor,"No 46/48 Jalan Melati Bandar Melawati, 45000 Kuala Selangor, Selangor",0193370148,false,true,false,false,8:30 am,11:00 pm,8:30 am,11:00 pm,kuala_selangor,,,
4355,5.330206,103.136182,Kuala Terengganu 1,"Kompleks Kolam Renang, Majlis Perbandaran Kuala Terengganu, Pantai Batu Buruk, 20400 Kuala Terengganu, 20201 Kuala Terengganu, Terengganu",0193358990,false,false,false,false,12:00 am,12:00 am,12:00 am,12:00 am,kuala_terengganu_1,,,
4356,5.33102,103.133252,Kuala Terengganu 2,"No. 22A (Ground & First Floors) & No. 22B (First Floor), Wisma Low Hai Whan, Jalan Sultan Ismail, 20201 Kuala Terengganu, Terengganu",0193359095,false,false,false,true,10:30 am,11:00 pm,10:30 am,11:00 pm,kuala_terengganu_2,,,
4357,3.80322,103.325608,Kuantan 1,"No 160, Bangunan LKNP, Jalan Besar, 25000 Kuantan, Pahang",0193359349,false,false,false,false,9:00 am,2:00 am,9:00 am,2:00 am,kuantan_1,,,
4358,3.810842,103.322565,Kuantan 2,"19, Jalan Pasar Baru, 25000 Kuantan, Pahang",0193359287,false,false,false,true,10:30 am,11:00 pm,10:30 am,11:00 pm,kuantan_2,,,
4359,3.804842,103.323421,Kuantan Parade,"Lot No G 22 & G 22A Ground Floor, Kuantan Parade Jalan Hj Abdul Rahman, 25000 Kuantan, Pahang",0193359623,false,false,false,false,10:30 am,10:00 pm,10:30 am,10:00 pm,kuantan_parade,,,
4360,6.091916,102.276481,Kubang Kerian Drive Thru,"Lot 2100, Jln Raja Perempuan Zainab 2, Kubang Kerian, 16150 Kota Baru, Kelantan",0193357401,true,true,true,false,12:00 am,12:00 am,12:00 am,12:00 am,kubang_kerian_drive_thru,,,
4361,3.092329,101.686201,Kuchai Lama Drive Thru,"Lot 14083, Jalan Kuchai Lama, 58200 Kuala Lumpur",0193359954,true,true,true,false,12:00 am,12:00 am,12:00 am,12:00 am,kuchai_lama_drive_thru,,,
4362,1.481827,110.332101,Kuching Sentral,"Lots 101, 102, 120-122, Ground Floor, Kuching Sentral Commercial Complex, 93250 Kuching, Sarawak",0198876414,false,false,false,false,10:00 am,10:00 pm,10:00 am,10:00 pm,kuching_sentral,,,
4363,6.879557,116.850227,Kudat,"Lot No. 2, Bangunan SEDCO, 88000 Kudat, Sabah",0198884581,false,false,false,false,9:30 am,11:00 pm,9:30 am,11:00 pm,kudat,,,
4364,1.668123,103.576466,Kulai,"No 152 & 153 Jalan Susur 3, 81000 Kulai, Johor",0193355804,false,false,false,true,10:30 am,11:00 pm,10:30 am,11:00 pm,kulai,,,
4365,1.632602,103.632478,Kulai Drive Thru,"Lot 5035, Bt 17 1/2, Jalan Air Hitam, Saleng, 81400 Senai, Johor",0193352207,false,false,true,false,10:00 am,2:00 am,10:00 am,2:00 am,kulai_drive_thru,,,
4366,5.37224,100.554283,Kulim 1,"Lot 88, Jalan Teo Moh Soo, Kulim, 09000 Kulim, Kedah",0193315462,false,true,false,true,7:00 am,1:00 am,7:00 am,1:00 am,kulim_1,,,
4367,4.683596,118.247971,Kunak,"Ground & First Floor, Lot 8, Block B, Kunak Shophouses (under TL Tittle No. 24750141), 91200 Kunak, Sabah",0198884793,false,false,false,false,10:00 am,10:00 pm,10:00 am,10:00 pm,kunak,,,
4368,5.347705,115.743016,Kundasang,"Lot No. 16, Ground Floor, & Lot No. 17, Ground & 1st Floor, Sedco Kundasang Shophouses, Phase II, 89000 Ranau, Sabah",0198884923,false,false,false,false,10:00 am,10:00 pm,10:00 am,10:00 pm,kundasang,,,
4369,2.397688,103.018976,Labis,"Lot 126, Jalan Segamat, Taman Bintang Jaya, 85300 Labis, Johor",0193384753,false,false,false,false,10:00 am,11:00 pm,10:00 am,11:00 pm,labis,,,
4370,5.276433,115.241871,Labuan 1,"Lot 56, Jalan Merdeka, 87000 Labuan",0198884966,false,false,false,false,12:00 am,12:00 am,12:00 am,12:00 am,labuan_1,,,
4371,5.024784,118.330706,Lahad Datu,"MDLD 0171, Jalan Kemboja, 91100 Lahad Datu, Sabah",0198884986,false,false,false,false,9:30 am,11:00 pm,9:30 am,11:00 pm,lahad_datu,,,
4372,5.385974,100.54649,Landmark Kulim,"Lot G, No 9 & 10 Ground Floors Landmark Central Shopping Centre, 09000 Kulim, Kedah",0193315279,false,false,false,false,10:30 am,11:00 pm,10:30 am,11:00 pm,landmark_kulim,,,
4373,4.083638,101.140172,Langkap,"Lorong 1, Taman Desa Jaya, 36700 Langkap, Perak.",0193372178,false,false,false,false,10:30 am,11:00 pm,10:30 am,11:00 pm,langkap,,,
4374,6.306319,99.851735,Langkawi,"Kompleks Jetty Point, Lot 16 & 17, Jalan Jetty, Mukim Kuah, 07000 Pulau Langkawi, Kedah",0193314881,false,true,false,false,8:00 am,11:00 pm,8:00 am,11:00 pm,langkawi,,,
4375,1.501554,103.747992,Larkin,"Ground & 1st Floor No. 45, Jalan Susur Dewata, Taman Larkin Perdana, 80350 Johor Bahru, Johor",0193356135,false,false,false,true,10:30 am,11:00 pm,10:30 am,11:00 pm,larkin,,,
4376,5.423051,100.325129,Larut,"No.52, Jalan Larut, 10050 Pulau Pinang",0193310105,false,false,false,true,9:00 am,11:00 pm,9:00 am,11:00 pm,larut,,,
4377,4.859181,115.407716,Lawas,"Ground & First Floor, Lawas Bazaar, Lot 469, 98857 Lawas Town District, Sabah",0198875948,false,false,false,false,10:00 am,11:00 pm,10:00 am,11:00 pm,lawas,,,
4378,1.426128,103.629205,Legoland JB (Medini Mall),"Lot G-35 Ground Floor, Medini Lifestyle Mall, 79200 Seri Iskandar Johor, Johor",0193384436,false,false,false,false,9:30 am,10:00 pm,9:30 am,10:00 pm,legoland_jb_(medini_mall),,,
4379,5.943042,116.081887,Lido,"Ground Floor, Lot 11, Lorong Bunga Rampai 6, Taman Che Mei, 88300 Jalan Penampang, Kota Kinabalu, Sabah",0198880974,false,false,false,false,10:00 am,11:00 pm,10:00 am,11:00 pm,lido,,,
4380,4.346659,115.183627,Limbang,"Sublot 6, Lot 91 Limbang Town District, 98700 Limbang, Sarawak",0198875915,false,false,false,false,9:00 am,11:00 pm,9:00 am,11:00 pm,limbang,,,
4381,6.115934,100.366992,Limbong Kapal Drive Thru (Alor Star II),"Lot 310, Jalan Limbong Kapal Alor Star, 05460 Alor Star, Kedah",0193315168,true,true,true,false,12:00 am,12:00 am,12:00 am,12:00 am,limbong_kapal_drive_thru_(alor_star_ii),,,
4382,2.324927,111.853537,LKC,"Sublot 17 & 18 on Lot 2260 & 2261 Block 3, Sg Merah Town District, Jalan Ling Kai Cheng, 96000 Sibu, Sarawak",0198879456,false,false,false,false,10:00 am,10:30 pm,10:00 am,10:30 pm,lkc,,,
4383,1.179384,110.564532,Louis Junction,"Sub Lot 9, Lot 537, Block 9, Bukar-Sadong Land District, Sungai Pasir, 94200 Serian, Sarawak",0198879717,false,false,false,false,10:00 am,10:00 pm,10:00 am,10:00 pm,louis_junction,,,
4384,3.144009,101.709932,Low Yat Plaza,"Lot No G-025 Plaza Low Yat Ground Floor, Jalan Bintang, Bukit Bintang, 55100 Kuala Lumpur",0193370776,false,true,false,false,8:00 am,10:00 pm,8:00 am,10:00 pm,low_yat_plaza,,,
4385,2.570278,101.830499,Lukut,"No 14, Pasar Besar Lukut, Jalan Seremban, 71010 Port Dickson, Negeri Sembilan",0193383538,false,false,false,false,10:00 am,11:00 pm,10:00 am,11:00 pm,lukut,,,
4386,4.23398,100.631872,Lumut,"No 4141, Persiaran Sultan Yusof Izuddin Shah, 32200 Lumut, Perak",0193377961,false,true,false,false,8:00 am,2:00 am,8:00 am,2:00 am,lumut,,,
4387,5.765088,102.219265,Machang Kelantan,"PT 80/81 Ground & 1st Floor, Jalan Pejabat, 18500 Machang, Kelantan",0193358731,false,false,false,false,10:00 am,11:00 pm,10:00 am,11:00 pm,machang_kelantan,,,
4388,2.188832,102.249522,Mahkota Parade,"Lot G22, Ground Floor, Mahkota Parade Jalan Merdeka, 75200 Melaka",0193365984,false,true,false,false,10:00 am,10:00 pm,10:00 am,10:00 pm,mahkota_parade,,,
4389,2.229513,102.227274,Malim Jaya,"No. 9, Jalan PPM 9, Plaza Pandan-Malim Business Park Balai Panjang, 75250 Melaka",0193366041,false,false,false,false,10:30 am,11:00 pm,10:30 am,11:00 pm,malim_jaya,,,
4390,2.8236519,101.8907247,Mantin,"No 1081 Jalan Besar Taman Gading Besar, 71700 Mantin, Negeri Sembilan",0193383312,false,false,false,false,10:30 am,11:00 pm,10:30 am,11:00 pm,mantin,,,
4391,3.584562,102.783567,Maran,"Lot 11-12, Ground and 1st Floor, Block D, Perdagangan Maran 2, 26500 Maran, Pahang",0193360672,false,false,false,false,10:30 am,11:00 pm,10:30 am,11:00 pm,maran,,,
4392,5.207241,103.206358,Marang,"26338-T 8990 Ground & 2nd Floor, 21600 Marang, Terengganu",0193359152,false,false,false,false,10:30 am,11:00 pm,10:30 am,11:00 pm,marang,,,
4393,2.352239,102.109575,Masjid Tanah,"Mt 675, Masjid Tanah, 78300 Melaka",0193366244,false,true,false,false,8:00 am,11:00 pm,8:00 am,11:00 pm,masjid_tanah,,,
4394,1.572948,110.277088,Matang,"Lot 9293, Block F Unit 60G, Synergy Square Ground Floor, Jalan Matang, 93050 Kuching, Sarawak",0198876342,false,false,false,false,,,,,matang,,,
4395,3.212757,101.7116,Medan Idaman,"No. 38, Jalan 2/21-D, Medan Idaman,Batu 5, Jalan Gombak, 53000 Kuala Lumpur",0193362661,false,true,false,false,8:00 am,2:00 am,8:00 am,2:00 am,medan_idaman,,,
4396,3.198954,113.059548,Medan Jaya,"Lot 3652, Block 31, Kemena Land District, 97000 Bintulu, Sarawak",0198878240,true,true,false,true,12:00 am,12:00 am,12:00 am,12:00 am,medan_jaya,,,
4397,3.0585417,101.7171541,Medan Niaga Sungai Besi,"No T2-23, Jalan Tasek Utama, Medan Niaga Tasik Damai Sg Besi, 57100 Kuala Lumpur",0193371806,false,false,false,true,10:00 am,11:00 pm,10:00 am,11:00 pm,medan_niaga_sungai_besi,,,
4398,3.815874,103.330284,Megamall Kuantan,"Lot G-79 & G-81, Ground & First Floor, Berjaya Megamall, Jalan Tun Ismail Sri Dagangan, 25000 Kuantan, Pahang",0193359620,false,false,false,false,10:00 am,10:00 pm,10:00 am,10:00 pm,megamall_kuantan,,,
4399,5.38288,100.39885,Megamall Pinang,"G-103, Ground Floor, Megamall Pinang, 2828 Jalan Baru, Bandar Prai Jaya, Seberang Prai Tengah, 13600 Pulau Pinang",0193313130,false,false,false,false,10:30 am,10:30 pm,10:30 am,10:30 pm,megamall_pinang,,,
4400,2.207755,102.242989,Melaka 2,"No 555, Plaza Melaka, Jalan Gajah Berang, 75300 Melaka",0193365981,true,true,false,false,12:00 am,12:00 am,12:00 am,12:00 am,melaka_2,,,
4401,3.143778,101.720908,Menara Jcorp,"Lot G-1 Level G Menara Johor Corporation, No 249 Jalan Tun Razak, 50400 Kuala Lumpur.",0193362916,false,true,false,true,7:00 am,11:00 pm,7:00 am,11:00 pm,menara_jcorp,,,
4402,3.484994,102.34917,Mentakab,"No GF-66, Jalan Temerloh, 28400 Mentakab, Pahang",0193374365,false,false,false,false,10:00 am,11:00 pm,10:00 am,11:00 pm,mentakab,,,
4403,3.470634,102.331812,Mentakab Star Mall,"N0 10 Jalan Star City, StarCity, 28400 Mentakab, Pahang",0193359862,false,false,false,false,10:00 am,10:00 pm,10:00 am,10:00 pm,mentakab_star_mall,,,
4404,2.165529,102.430647,Merlimau Drive Thru,"Lot 6497 Mukim Merlimau, 77300 Jasin, Melaka",0193366230,false,true,true,false,8:00 am,2:00 am,8:00 am,2:00 am,merlimau_drive_thru,0.010205699999999762,0.003771999999997888,0.010880454792423853
4405,2.431349,103.835417,Mersing,"No 37, Jalan Abu Bakar, Mersing, 81900 Johor Bahru, Johor",0193384698,false,true,false,false,7:00 am,11:00 pm,7:00 am,11:00 pm,mersing,,,
4406,3.065194,101.451969,Meru,"No. 186, Jalan Meru, 41050 Klang, Selangor",0193364284,false,false,false,true,10:00 am,11:00 pm,10:00 am,11:00 pm,meru,,,
4407,4.672426,101.075249,"Meru Raya Drive Thru, Ipoh","Lot PT 241415, Medan Meru Bistari, Bandar Meru Raya, Mukim Hulu Kinta, 30020 Daerah Kinta, Perak",0193377983,true,true,true,false,12:00 am,12:00 am,12:00 am,12:00 am,meru_raya_drive_thru_ipoh,,,
4408,1.56973,110.306749,Metrocity Drive Thru,"Lot 13769, Jalan Matang, Section 65, Kuching Town Land District, 93050 Kuching, Sarawak",0198876086,true,true,true,false,12:00 am,12:00 am,12:00 am,12:00 am,metrocity_drive_thru,,,
4409,3.117209,101.677936,Mid Valley,"Lot LG038, Lower Ground Floor, Midvalley Megamall, Midvalley City 58000 Kuala Lumpur, 58000 Kuala Lumpur",0193359907,false,true,false,false,8:00 am,10:00 pm,8:00 am,10:00 pm,mid_valley,,,
4410,5.433113,100.307273,Midlands,"Lot 488B-G-45, Midlands Park Centre, Jalan Burma, 10350 Pulau Pinang",0193310150,false,false,false,true,10:30 am,11:00 pm,10:30 am,11:00 pm,midlands,,,
4411,4.394187,113.98639,Miri 1,"Lot 124, Bendahara Road, 98000 Miri, Sarawak",0198879245,false,false,false,false,12:00 am,12:00 am,12:00 am,12:00 am,miri_1,,,
4412,2.043614,102.566973,Muar 1,"Ground, First & Second Floor, No. 23-1, Jalan Arab, 84000 Muar, Johor",0193384629,false,false,false,false,10:30 am,11:00 pm,10:30 am,11:00 pm,muar_1,,,
4413,2.062945,102.575494,Muar 2,"Ground & First Floors Plaza LLY, Jalan Salleh, 84000 Muar, Johor",0193384708,true,true,false,true,12:00 am,12:00 am,12:00 am,12:00 am,muar_2,,,
4414,2.502659,112.315669,Mukah,"New Township Extension, L924 & L927, Sublot 1142, Jalan Orang Kaya Setia Raja, 96400 Mukah, Sarawak",0198875825,false,false,false,false,9:00 am,11:00 pm,9:00 am,11:00 pm,mukah,,,
4415,1.513984,103.634883,Mutiara Rini Drive Thru,"No. 5, Persiaran Jaya 1, Taman Mutiara Rini, 81000 Johor",0193355669,true,true,true,false,12:00 am,12:00 am,12:00 am,12:00 am,mutiara_rini_drive_thru,,,
4416,5.311305,103.130715,Mydin Kuala Terengganu,"Ground & 1st floor (Annex Building), Mukim Cabang Tiga, Jalan Tengku Mizan, 21002 Kuala Terengganu, Terengganu",0193359101,false,false,false,false,10:00 am,11:00 pm,10:00 am,11:00 pm,mydin_kuala_terengganu,,,
4417,3.058897,101.596656,Mydin USJ,"Lot F0-6. G23, Mydin Hypermarket, Persiaran Subang Permai, USJ 1, 47500 Subang Jaya, Selangor",0193371264,false,false,false,false,10:00 am,11:00 pm,10:00 am,11:00 pm,mydin_usj,,,
4418,5.167881,100.477149,Nibong Tebal,"3910 Jalan Che Ahmad, Pusat Perniagaan Bandar Nibong Tebal, 14300 Nibong Tebal, Penang",0193313742,false,false,false,false,10:30 am,11:00 pm,10:30 am,11:00 pm,nibong_tebal,,,
4419,2.821738,101.791005,Nilai Square Drive Thru,"No. 193371, Lot No. 33613, Bandar Nilai Utama (Nilai Square), Daerah Seremban, 71800 Nilai, Negeri Sembilan",0193382911,true,true,true,false,12:00 am,12:00 am,12:00 am,12:00 am,nilai_square_drive_thru,0.01866689999999993,0.016473700000048552,0.024896504720574676
4420,3.133401,101.686841,NU Sentral KL,"Lot No. 16, Level 5, NU Sentral KL, Jalan Tun Sambathan, 50470 Kuala Lumpur",0193369890,false,false,false,false,10:00 am,10:00 pm,10:00 am,10:00 pm,nu_sentral_kl,,,
4421,1.497069,103.655674,Nusa Bestari,"No 1 Jalan Bestari 1/5, Taman Nusa Bestari, 81300 Skudai, Johor",0193356400,false,true,false,true,10:00 am,2:00 am,10:00 am,2:00 am,nusa_bestari,,,
4422,1.450567,103.592275,Nusa Perintis Gelang Patah,"No 59 Medan Nusa Perintis 6, Taman Nusa Perintis 2, 81550 Gelang Patah, Johor",0193384431,false,true,false,true,7:00 am,11:00 pm,7:00 am,11:00 pm,nusa_perintis_gelang_patah,,,
4423,2.423642,102.212533,OHB Ayer Keroh,"Lot R2, Overhead Bridge Restaurant Ayer Keroh, KM210 North South Expressway, Ayer Keroh, 76470 Melaka",0193366034,true,true,false,false,12:00 am,12:00 am,12:00 am,12:00 am,ohb_ayer_keroh,,,
4424,3.188581,101.586348,OHB Sg Buloh,"No. R1, Sg Buloh Overhead Bridge, KM458.40 of North South Express Between Sg Buloh and Bukit Lanjan Interchange, 47000 Sg Buloh, Selangor",0193363164,true,true,false,false,12:00 am,12:00 am,12:00 am,12:00 am,ohb_sg_buloh,,,
4425,6.035497,116.129284,One Borneo,"Unit No. C-118, Concourse Floor, 1 Borneo Hypermall, Jalan Sulaman, 88400 Kota Kinabalu, Sabah",0198883274,false,false,false,false,10:00 am,10:00 pm,10:00 am,10:00 pm,one_borneo,,,
4426,2.509016,102.812001,One Segamat,"No. 45, Ground Floor, One Segamat, Jalan Kolam Air, 85000 Segamat, Johor",0193388412,false,false,false,false,10:00 am,10:00 pm,10:00 am,10:00 pm,one_segamat,,,
4427,5.3331472,116.1528459,"Padang Bandaran, Keningau","Lot No. 12, Keningau Township, 89008 Keningau, Sabah",0198884635,false,false,false,false,10:00 am,10:00 pm,10:00 am,10:00 pm,padang_bandaran_keningau,,,
4428,6.660601,100.320729,Padang Besar,"No. 19, Ground Floor, Kedai PKENPS, 02100 Padang Besar, Perlis",0193362127,false,false,false,false,10:00 am,10:00 pm,10:00 am,10:00 pm,padang_besar,,,
4429,5.365378,100.445116,Padang Lallang,"No. 1390 Jalan Padang Lallang, Taman Sri Rambai, 14000 Bukit Mertajam, Penang",0193313649,false,false,false,true,10:00 am,11:00 pm,10:00 am,11:00 pm,padang_lallang,,,
4430,5.515678,100.543762,Padang Serai,"Lot No 1716 Jalan Serai Wangi 9/5, Taman Serai Wangi 2, 09400 Padang Serai, Kedah",0193315994,false,false,false,false,10:30 am,11:00 pm,10:30 am,11:00 pm,padang_serai,0.004082999999999615,0.07097299999999507,0.07109034827597412
4431,3.812036,103.371792,Palm Beach Teluk Cempedak,"Palm Beach Teluk cempedak Kuantan, 25000 Kuantan, Pahang",0193359507,true,true,true,false,12:00 am,12:00 am,12:00 am,12:00 am,palm_beach_teluk_cempedak,,,
4432,2.719059,101.922471,"Palm Mall, Negeri Sembilan","Lot G6 & G7, Ground Floor, Palm Mall Shopping Complex Off Jalan Sungai Ujong, 70512 Seremban, Negeri Sembilan",0193316215,false,false,false,false,10:00 am,10:00 pm,10:00 am,10:00 pm,palm_mall_negeri_sembilan,,,
4433,3.016066,101.424831,Pandamaran,"No. 9, Jalan Batu Unjur, Pandamaran, 42000 Port Klang, Selangor",0193363711,false,false,false,true,10:00 am,11:00 pm,10:00 am,11:00 pm,pandamaran,,,
4434,3.131749,101.751835,Pandan Indah,"Ground 7 Mezzanine Floor, No 24, Jalan Pandan Indah 1/23 C, Pandan Indah, 55100 Kuala Lumpur",0193375181,false,false,false,false,10:30 am,11:00 pm,10:30 am,11:00 pm,pandan_indah,,,
4435,4.44577,100.626286,Pantai Remis,"121, Hala Desa Pantai 1, Tanah Desa Pantai 2, 34900 Pantai Remis, Perak",0193386206,false,false,false,false,10:30 am,11:00 pm,10:30 am,11:00 pm,pantai_remis,,,
4436,5.606522,115.962459,Papar,"Ground & 1st Floor, Lot 75 (Corner Lot), Taman OKK Hj Mahali, 89608 Papar, Sabah",0198889607,false,false,false,false,9:30 am,10:00 pm,9:00 am,10:30 pm,papar,,,
4437,5.118911,100.486839,Parit Buntar 2,"No. 27 Jalan Temenggong 2, Pusat Bandar Baru, 34200 Parit Buntar, Perak",0193372114,true,true,false,false,12:00 am,12:00 am,12:00 am,12:00 am,parit_buntar_2,,,
4438,1.865772,103.114941,Parit Raja,"No 1, 1A, 1B, Jalan Persiaran Cempaka, Taman Bunga Cempaka Biru, 86400 Parit Raja, Johor",0193384756,false,true,false,false,8:00 am,2:00 am,8:00 am,2:00 am,parit_raja,,,
4439,1.466638,103.901547,Pasir Gudang,"Level 3-27B, Level 3 Kompleks Pusat Bandar Pasir Gudang, 81200 Pasir Gudang, Johor",0193316874,false,false,false,true,10:30 am,10:00 pm,10:30 am,10:00 pm,pasir_gudang,,,
4440,1.47887,103.893753,Pasir Gudang Land Drive Thru,"Plot 1 Block C , Jalan Persiaran Dahlia 2, Taman Bukit Dahlia, Mukim Plentong, 81200 Pasir Gudang, Johor",0193352429,true,true,true,false,12:00 am,12:00 am,12:00 am,12:00 am,pasir_gudang_land_drive_thru,,,
4441,6.04297,102.144589,Pasir Mas,"Lot No. 101, Tingkat 1, Jalan Serakai Mas, 16800 Pasir Mas",0193358823,false,false,false,false,10:00 am,11:00 pm,10:00 am,11:00 pm,pasir_mas,,,
4442,5.835798,102.409699,"Pasir Puteh, Kelantan","Lot 250 & 251, Ground & First Floor, Jalan Tanjung Abdul Rahim, 16800 Pasir Puteh, Kelantan",0193357911,false,true,false,false,8:00 am,11:00 pm,8:00 am,11:00 pm,pasir_puteh_kelantan,,,
4443,6.052648,102.281255,Pasir Tumboh Drive Thru,"PT 3429, Bandar Satelit Islam, Pasir Tumboh, Seksyen 69, Mukim Guntong Daerah Limbat, Jalan Pasir Puteh, 16150 Kota Bharu, Kelantan",0193358125,true,true,true,false,12:00 am,12:00 am,12:00 am,12:00 am,pasir_tumboh_drive_thru,,,
4444,5.928564,116.094289,"Pavilion, Bundusan","Lot No. D-33-G (Ground Floor), D-33-1 (1st Floor), D-33A-2, (2nd Floor), Type C, Block D, Pavilion Bundusan, Jalan Bundusan, 88300 Penampang, Kota Kinabalu, Sabah",0198883716,false,false,false,true,10:00 am,11:00 am,10:00 am,11:00 am,pavilion_bundusan,,,
4445,3.148318,101.713141,Pavillion,"1.29.02, Level 1, Pavilion Kuala Lumpur, 168, Jalan Bukit Bintang, 55100 Kuala Lumpur",0193370806,false,false,false,false,10:00 am,10:00 pm,10:00 am,10:00 pm,pavillion,,,
4446,5.333057,103.137055,"Paya Keladi, Terengganu","Lot No 1, Pusat Niaga Paya Keladi, 20000 Kuala Terengganu",0193359140,false,true,false,false,8:00 am,11:00 pm,8:00 am,11:00 pm,paya_keladi_terengganu,,,
4447,3.491805,103.392182,Pekan,"G-04, G05 Bangunan UMNO Bahagian Pekan Jalan Tengku Arif Bendahara, 26600 Pekan, Pahang",0193359729,false,true,false,false,8:00 am,11:00 pm,8:00 am,11:00 pm,pekan,,,
4448,2.039268,102.569082,Pekan Bukit Pasir Muar,"No 3 Jalan Perdagangan, Pekan Bukit Pasir, 84300 Muar, Johor",0193385179,false,false,false,false,10:30 am,11:00 pm,10:30 am,11:00 pm,pekan_bukit_pasir_muar,,,
4449,3.130831,101.440372,Pekan Meru,"No 207, Jalan Meru, Meru, 41500 Klang, Selangor",0193364292,false,false,false,false,10:00 am,11:00 pm,10:00 am,11:00 pm,pekan_meru,,,
4450,1.507941,103.510913,Pekan Nanas,"No. SH31, Jalan Besar, 81500 Pekan Nenas",0193384353,false,false,false,false,10:30 am,11:00 pm,10:30 am,11:00 pm,pekan_nanas,,,
4451,6.098321,100.366709,Pekan Simpang Kuala,"No 57 Jalan PKS 1 Pekan Simpang Kuala Alor Setar, 06680 Alor Star, Kedah",0193315590,false,false,false,false,10:30 am,11:00 pm,10:30 am,11:00 pm,pekan_simpang_kuala,,,
4452,2.930527,101.856365,Pelangi Semenyih Drive Thru,"No. 1, Jalan TPS 1/1, Taman Pelangi Semenyih, 43500 Semenyih, Selangor",0193376290,false,true,true,false,7:00 am,2:00 am,7:00 am,2:00 am,pelangi_semenyih_drive_thru,,,
4453,5.2926492,100.2635482,Penang International Airport,"Lot-L2L-FB4, Jalan Sultan Azlan Shah, 11900 Bayan Lepas, Pulau Pinang",0193311655,true,true,false,false,12:00 am,12:00 am,12:00 am,12:00 am,penang_international_airport,,,
4454,5.982448,100.459362,Pendang Kedah,"No.153 Ground Floor/1st Floor & No 154 1st Floor, Pekan Pendang Baru, 06700 Pendang, Kedah",0193315820,false,false,false,false,10:30 am,11:00 pm,10:30 am,11:00 pm,pendang_kedah,,,
4455,6.169994,102.292151,Pengkalan Chepa Drive Thru,"Pt 604, Jalan Tok Guru, 15400 Kota Bahru, Kelantan",0193357713,true,true,true,false,12:00 am,12:00 am,12:00 am,12:00 am,pengkalan_chepa_drive_thru,,,
4456,5.706507,101.001426,"Pengkalan Hulu, Perak","No 11 Jalan Betong Pekan Kroh, 33100 Pengkalan Hulu, Perak",0193372886,false,false,false,false,10:30 am,11:00 pm,10:30 am,11:00 pm,pengkalan_hulu_perak,,,
4457,1.498251,103.815992,Permas Jaya,"No 1,1-01, 1-02 & 1-03 Jln Permas 10/1 Bandar Baru Permas Jaya, 81750 Johor Bahru, Johor",0193356038,false,false,false,false,10:00 am,11:00 pm,10:00 am,11:00 pm,permas_jaya,,,
4458,3.157448,101.695067,Pertama Complex,"Pusat Makanan Sebelah Pertama Komplexs, Lot No. 1222 Jalan Dang Wangi, 50100 Kuala Lumpur",0193362180,false,true,false,false,8:00 am,11:00 pm,8:00 am,11:00 pm,pertama_complex,,,
4459,3.0739322,101.7379976,Petronas Alam Damai Drive Thru,"Jalan Persiaran Alam Damai, Bandar Alam Damai, 56000 Kuala Lumpur",0193371709,false,true,true,false,8:00 am,11:00 pm,8:00 am,11:00 pm,petronas_alam_damai_drive_thru,,,
4460,3.521877,101.908937,Petronas Bentong Drive Thru,"Petronas Station, Lot 8207 Mukim Bentong, 28700 Bentong, Pahang",0193359232,false,true,true,false,8:00 am,2:00 am,8:00 am,2:00 am,petronas_bentong_drive_thru,,,
4461,3.005688,101.725449,Petronas Besraya Drive Thru,"KM 0.7 Besraya Arah Utara Part of Lot 896, GRN46223 Mukim Kajang Daerah Hulu Langat, 43300 Serdang, Selangor",0193377015,false,true,true,false,8:00 am,2:00 am,8:00 am,2:00 am,petronas_besraya_drive_thru,,,
4462,3.063055,101.500388,Petronas Federal Highway,"Petronas Service Station Lot P.T.4 (HSD 132930), KM8.5-KM8.7 Federal Highway, Section 1, 40450 Shah Alam, Selangor",0193362136,false,true,true,false,7:00 am,2:00 am,7:00 am,2:00 am,petronas_federal_highway,,,
4463,3.151129,101.585486,Petronas Kota Damansara Drive Thru,"Lot 1, Jalan Camar 4/1, Off Persiaran Surian, Seksyen 4, 47810 Kota Damansara, Selangor",0193363149,false,true,true,false,8:00 am,12:00 am,8:00 am,12:00 am,petronas_kota_damansara_drive_thru,,,
4464,3.12193,101.728916,Petronas Metramac Cheras,"Lot 56441, HS (D) 11375 PT7424 Jalan Cheras, 56100 Kuala Lumpur",0193371680,false,true,true,false,8:00 am,12:00 am,8:00 am,12:00 am,petronas_metramac_cheras,,,
4465,3.07892,101.646946,Petronas Petaling Utama Drive Thru,"Taman Petaling Utama, 46000 Petaling Jaya, Selangor",0193380409,false,true,true,false,8:00 am,11:00 pm,8:00 am,11:00 pm,petronas_petaling_utama_drive_thru,,,
4466,5.399986,100.399536,Petronas Seberang Jaya Drive Thru,"Petronas Service Station ( PPS Bandar Sunway ) Lot 5494 / 5729, Mukim 1, Bandar Sunway, Seberang Jaya, Prai, 13700 Pulau Pinang",0193313809,true,true,true,false,12:00 am,12:00 am,12:00 am,12:00 am,petronas_seberang_jaya_drive_thru,,,
4467,3.063497,101.524321,Petronas Section 15 Shah Alam Drive Thru,"No. 1 Jalan Tukul P, 15/P Section 15, 40200 Shah Alam, Selangor",0193361696,false,true,true,false,8:00 am,11:00 pm,8:00 am,11:00 pm,petronas_section_15_shah_alam_drive_thru,,,
4468,2.194877,102.287028,Petronas Semabok Drive Thru,"Lot 762 & 763 Jalan Tun Razak (Lebuh AMJ) Mukim Semabok, 75050 Daerah Melaka Tengah, Melaka",0193365954,true,true,true,false,12:00 am,12:00 am,12:00 am,12:00 am,petronas_semabok_drive_thru,,,
4469,1.523803,103.677906,Petronas Skudai Drive Thru,"BSS KM 13, Jalan Skudai PTD 135891, Batu 8 Lebuhraya Skudai, Mukim Pulai, 81300 Johor Bahru, Johor",0193351504,false,false,true,false,10:00 am,2:00 am,10:00 am,2:00 am,petronas_skudai_drive_thru,,,
4470,3.142202,101.625165,Petronas Taman Tun Drive Thru (TTDI),"1st Floor Petronas Station, Pinggiran Zaaba, Taman Tun Dr Ismail, 60000 Kuala Lumpur",0193361255,true,true,true,false,12:00 am,12:00 am,12:00 am,12:00 am,petronas_taman_tun_drive_thru_(ttdi),,,
4471,1.532217,103.621647,Petronas Taman University Drive Thru,"Lot HS (D) 176907 (PTD 44992) Taman University, Mukim Pulai, 81300 Johor Bahru, Johor",0193353405,true,true,true,true,12:00 am,12:00 am,12:00 am,12:00 am,petronas_taman_university_drive_thru,,,
4472,3.049107,101.680403,Petronas TPM Drive Thru,"Petronas Bukit Jalil, Lot 762 & Lot PT 7004 HSD 95960 MK Petaling, 57100 Bukit Jalil, Selangor",0193382726,false,true,true,false,8:00 am,11:00 pm,8:00 am,11:00 pm,petronas_tpm_drive_thru,,,
4473,3.030393,101.583803,Petronas USJ 20 Drive Thru,"Lot 49946, Jalan Persiaran Kewajipan, USJ 20, 47630 Subang Jaya, Selangor",0193375037,true,true,true,false,12:00 am,12:00 am,12:00 am,12:00 am,petronas_usj_20_drive_thru,,,
4474,2.961891,101.756988,PKNS Bangi,"Lot 20, Ground Floor Komplek PKNS Bangi, 43650 Bandar Baru Bangi, Selangor",0193375037,false,true,false,true,8:00 am,11:00 pm,8:00 am,11:00 pm,pkns_bangi,,,
4475,1.49571,103.705698,Plaza Angsana,"Lot L1.28a & L1.29, Plaza Angsana, Jalan Skudai, Pusat Bandar Tampoi, 81200 Johor Bahru, Johor",0193356108,false,false,false,false,10:00 am,10:00 pm,10:00 am,10:00 pm,plaza_angsana,,,
4476,5.366685,100.46223,Plaza BM,"Lot LG53, LG53A & LG22, Lower Ground Floor, Plaza Bukit Mertajam, 566 Jalan Arumugam Pillai, 14000 Bukit Mertajam, Penang",0193313671,false,false,false,false,10:30 am,10:00 pm,10:30 am,10:00 pm,plaza_bm,,,
4477,3.207054,101.75188,Plaza Giant Melawati,"Shop 3&4, Pasaraya & Pusat Membeli Belah Giant, Lot 13796, Jalan Cangkat Permata, Taman Permata, 53300 Kuala Lumpur",0193360813,false,false,false,false,10:00 am,10:30 pm,10:00 am,10:30 pm,plaza_giant_melawati,,,
4478,5.992625,116.112533,Plaza Juta,"Ground & 1st Floor, Lot 22, Block B, Plaza Juta, Jalan Tuaran, 88200 Kota Kinabalu, Sabah",0198881056,false,false,false,true,10:00 am,11:00 pm,9:30 am,11:00 pm,plaza_juta,,,
4479,1.558966,110.343859,Plaza Merdeka,"G-36 & G-37 and B-53 on Basement 1, Plaza Merdeka Shopping Centre, 88, Pearl Street, 93000 Kuching, Sarawak",0198877153,false,false,false,false,10:00 am,10:00 pm,10:00 am,10:00 pm,plaza_merdeka,,,
4480,6.16705,100.50333,Pokok Sena,"Lot 1&2 Ground Floor, Taman Sena Harmoni, 06400 Pokok Sena, Kedah",0193385965,false,false,false,false,10:30 am,11:00 pm,10:30 am,11:00 pm,pokok_sena,,,
4481,1.485401,103.390833,Pontian,"No 668 Jalan Taib, 82000 Pontian, Johor",0193384330,false,false,false,false,10:30 am,11:00 pm,10:30 am,11:00 pm,pontian,,,
4482,1.485561,103.387859,Pontian Drive Thru,"Lot 1088-1091 & 3279, Mukim Rimba Terjun, 82000 Pontian, Johor",0193386389,true,true,true,false,12:00 am,12:00 am,12:00 am,12:00 am,pontian_drive_thru,,,
4483,1.481089,103.391789,Pontian Plaza,"Lot G 01-04, Ground Floor, Pontian Plaza Shopping Mall, Jalan Bakek, 82000 Pontian, Johor",0193384351,false,false,false,false,10:30 am,10:00 pm,10:30 am,10:00 pm,pontian_plaza,,,
4484,2.522998,101.796953,Port Dickson,"No1, Jalan Aman, Kawasan Penambakan Laut, 71009 Bandar Port Dickson, Negeri Sembilan",0193383087,false,false,false,false,10:00 am,11:00 pm,10:00 am,11:00 pm,port_dickson,,,
4485,2.5044331,101.8354042,Port Dickson Drive Thru,"Lot 2636 and 2641, Batu 4, 71000 Port Dickson, Negeri Sembilan",0193385830,true,true,true,false,12:00 am,12:00 am,12:00 am,12:00 am,port_dickson_drive_thru,,,
4486,3.002713,101.399855,Port Klang,"No 101 Persiaran Raja Muda, 42000 Port Klang, Selangor",0193363661,true,true,false,false,12:00 am,12:00 am,12:00 am,12:00 am,port_klang,,,
4487,2.999574,101.39183,"Port Klang, Kiosk","Unit No.1,9,10 on Lot 17, Sec 16 Mkm Bdr Port Klang, Port Klang (South) Railway Station, Persiaran Raja Muda Musa, 42000 Port Klang, Selangor",0193363710,false,false,false,false,9:30 am,10:00 pm,9:30 am,10:00 pm,port_klang_kiosk,,,
4488,1.515858,110.353816,Premiere 101,"Lot 96, Parent Lot 228, Jalan Tun Jugah, Kuching, Sarawak, 93350 Kuching, Sarawak",0198876915,false,false,false,true,10:00 am,10:30 pm,10:00 am,10:30 pm,premiere_101,,,
4489,2.38039,102.209632,Prima Alor Gajah,"No 17, Prima Alor Gajah, Alor Gajah, 78000 Melaka",0193366297,true,true,false,false,12:00 am,12:00 am,12:00 am,12:00 am,prima_alor_gajah,,,
4490,3.061703,101.645946,Puchong,"No 14433, 7-1/2 Miles, Jalan Puchong, 47100 Puchong, Selangor",0193381378,false,false,false,true,10:00 am,11:00 pm,10:00 am,11:00 pm,puchong,,,
4491,2.99954,101.596012,Puchong Prima,"Blok F01-09 & F01-10 Blok F, Pusat Perdagangan Puchong Prima, Jalan Prima 5/3 Puchong, 41700 Puchong, Selangor",0193381378,false,false,false,true,10:00 am,11:00 pm,10:00 am,11:00 pm,puchong_prima,,,
4492,3.146253,101.700523,Pudu2,"No 305, Jalan Pudu, 55100 Kuala Lumpur",0193362583,false,false,false,false,10:30 am,10:30 pm,10:30 am,10:30 pm,pudu2,,,
4493,3.160074,101.700448,Puduraya,"Ground Floor, No. 12-14, Jalan Pudu, 55100 Kuala Lumpur",0193362584,false,true,false,false,8:00 am,2:00 am,8:00 am,2:00 am,puduraya,,,
4494,4.212209,100.56329,Pulau Pangkor,"No. 122, Taman Pangkor Mutiara, Jalan Pasir Bogak, 32300 Pulau Pangkor, Perak",0193386163,false,false,false,false,10:30 am,11:00 pm,10:30 am,11:00 pm,pulau_pangkor,,,
4495,3.241659,101.432849,Puncak Alam,"No. 6-1 & 8-1 (Ground Floor), Jalan Puncak Alam Jaya 13, Pusat Perdagangan Puncak Alam Jaya, 42300 Bandar Puncak Alam, Selangor",0193381379,false,false,false,false,10:00 am,11:00 pm,10:00 am,11:00 pm,puncak_alam,,,
4496,3.319112,101.57762,Pusat Bandar Rawang,"No. 11, Jalan Bandar Rawang 10, 48000 Rawang, Selangor",0193361591,false,false,false,false,10:00 am,11:00 pm,10:00 am,11:00 pm,pusat_bandar_rawang,,,
4497,5.894215,116.049196,Putatan Plaza,"Lot No. 11 (Intermediate) & 12 (Corner lot), Putatan Plaza, 88100 Kota Kinabalu, Sabah",0198881460,false,false,false,true,9:30 am,12:00 pm,9:30 am,12:00 pm,putatan_plaza,,,
4498,1.573783,103.814403,Puteri Wangsa Drive Thru,"Lot PTD 113519, Taman Puteri Wangsa, Mukim Tebrau, 81800 Johor Bahru, Johor",0193355171,true,true,true,false,12:00 am,12:00 am,12:00 am,12:00 am,puteri_wangsa_drive_thru,,,
4499,5.334076,100.306691,"Queensbay Mall, Penang","GF 12A, Queensbay Mall, 100, Persiaran Bayan Indah, Bayan Lepas, 11900 Pulau Pinang",0193310297,false,false,false,false,10:30 am,10:30 pm,10:30 am,10:30 pm,queensbay_mall_penang,,,
4500,3.159871,101.700583,Quill Mall,"Lot 2-21 & 2-22, 2nd Floor, Quill City Mall, Jalan Sultan Ismail, 50250 Kuala Lumpur",0193362273,false,false,false,false,10:00 am,10:30 pm,10:00 am,10:30 pm,quill_mall,,,
4501,5.445404,100.429999,"R2 Avenue, Sg Dua","Lot 10, Lorong Perniagaan, Pusat Perniagaan Sg Dua R2 Avenue, 13800 Butterworth, Penang",0193314081,false,true,false,false,8:00 am,11:00 pm,8:00 am,11:00 pm,r2_avenue_sg_dua,,,
4502,3.166769,101.696217,Raja Laut,"No 138 & 140 Jalan Raja Laut, 50350 Kuala Lumpur",0193362191,true,true,false,false,12:00 am,12:00 am,12:00 am,12:00 am,raja_laut,,,
4503,5.416925,100.380013,Raja Uda Butterworth,"No: 62 & 64,Ground Floor, Jalan Raja Uda, 12300 Butterworth, Penang",0193314076,false,true,false,false,8:00 am,11:00 pm,8:00 am,11:00 pm,raja_uda_butterworth,,,
4504,5.953801,116.664658,Ranau,"Ground & 1st Floor, Lot No. 9, Block B, Ranau New Township, 89307 Ranau, Sabah",0198885972,false,false,false,false,9:30 am,11:00 pm,9:30 am,11:00 pm,ranau,,,
4505,2.585422,101.962533,Rantau,"Jalan Besar, Pekan Rantau, 71200 Rantau, Negeri Sembilan",0193363094,false,false,false,false,10:00 am,11:00 pm,10:00 am,11:00 pm,rantau,,,
4506,6.003219,102.006298,Rantau Panjang Drive Thru,"Lot 3901, Batu 2, Jalan Lebuhraya Rantau Panjang, 17200 Pasir Mas, Kelantan",0193358782,false,true,true,false,9:00 am,11:00 pm,9:00 am,11:00 pm,rantau_panjang_drive_thru,,,
4507,2.683206,101.94252,Rasah Jaya,"No 3825, Jalan RJ 6/8, Rasah Jaya, 70300 Seremban, Negeri Sembilan",0193316241,false,false,false,true,10:00 am,11:00 pm,10:00 am,11:00 pm,rasah_jaya,,,
4508,3.798065,101.863531,Raub,"No. 32, Bandar Perdana Raub, 27600 Raub, Pahang",0193359641,false,true,false,false,8:00 am,11:00 pm,8:00 am,11:00 pm,raub,,,
4509,3.790519,101.857115,Raub 2,"No.1, Pusat Perniagaan Raub, 27600 Raub, Pahang",0193385340,false,false,false,false,10:30 am,11:00 pm,10:30 am,11:00 pm,raub_2,,,
4510,3.323619,101.576881,Rawang New Town,"Lot No 41, Rawang New Township Jalan Bandar Rawang 2, 48000 Rawang, Selangor",0193381861,true,true,false,false,12:00 am,12:00 am,12:00 am,12:00 am,rawang_new_town,,,
4511,2.58946,102.09262,Rembau,"Lot 597, Jalan Terentang, 71300 Rembau, Negeri Sembilan",0193384204,false,false,false,false,10:00 am,11:00 pm,10:00 am,11:00 pm,rembau,,,
4512,1.8767,102.961958,Rengit,"No 91 & 92, Jalan Besar, 83100 Rengit, Batu Pahat, Johor",0193385163,false,false,false,false,10:30 am,11:00 pm,10:30 am,11:00 pm,rengit,,,
4513,1.53583,110.357526,Rock Road,"Lot 2676 Block 10, 2½ Miles, 93200 Kuching, Sarawak",0198876335,false,false,false,false,9:30 am,11:00 pm,9:30 am,11:00 pm,rock_road,,,
4514,2.796503,103.486136,Rompin,"No.28, Jalan Utama, Bandar Baru Rompin,, 26800 Rompin, Pahang",0193359844,false,false,false,false,10:30 am,11:00 pm,10:30 am,11:00 pm,rompin,,,
4515,4.99025,100.664756,RSA Gunung Semanggol,"KM 194.8 North South Expressway, Jawi-Changkat Jering, 34400 Semanggol, Perak",0193378482,false,false,false,false,10:30 am,11:00 pm,10:30 am,11:00 pm,rsa_gunung_semanggol,,,
4516,5.833088,100.486821,RSA Gurun,"Rest & Service Area (RSA) Gurun Northbound KM 81.00, North South Expressway, 08200 Gurun, Kedah",0193315037,false,false,false,false,10:30 am,10:00 pm,10:30 am,10:00 pm,rsa_gurun,,,
4517,2.122272,102.793198,RSA Pagoh,"Kawasan Rehat Dan Rawat Pagoh Aras Selatan, KM 135.5, Lebuhraya Utara Selatan, Mukim Jorak, 84600 Muar, Johor",0193384469,false,true,false,false,8:00 am,11:00 pm,8:00 am,11:00 pm,rsa_pagoh,,,
4518,2.726171,101.937291,RSA Seremban,"Rest & Service Area Seremban, KM 274.40, North South Expressway, 73300 Seremban, Negeri Sembilan",0193316749,true,true,false,false,12:00 am,12:00 am,12:00 am,12:00 am,rsa_seremban,,,
4519,4.180799,101.289927,RSA Tapah,"Rest & Service Area Tapah, KM 331.50, North South Expressway, Tapah, Perak",0193378734,false,true,false,false,10:30 am,11:00 pm,10:30 am,11:00 pm,rsa_tapah,,,
4520,4.493854,101.152307,RTC Gopeng Drive Thru,"Kawasan Perindustrian Gopeng, 2km 16 Jalan Gopeng, 31600 Gopeng, Perak",0193378023,false,false,true,false,10:30 am,11:00 pm,10:30 am,11:00 pm,rtc_gopeng_drive_thru,,,
4521,3.763561,100.98363,Sabak Bernam,"Lot 496, Plot No 16, Jalan Menteri, 45200 Sabak Bernam, Selangor",0193382607,false,false,false,false,10:00 am,11:00 pm,10:00 am,11:00 pm,sabak_bernam,,,
4522,2.811458,101.738444,Salak Tinggi,"No 38/39. ST 1C/4 Bandar Baru Salak Tinggi, 43900 Sepang, Selangor",0193371782,false,false,false,false,10:00 am,11:00 pm,10:00 am,11:00 pm,salak_tinggi,,,
4523,5.866503,118.057543,Sandakan Giant,"Lot No. A8-A11, Giant Hypermarket Sandakan, Lot 3, Jalan IJM, Bandar Utama, Batu 6, Off Jalan Utara, 90000 Sandakan, Sabah",0198887042,false,false,false,false,10:00 am,10:00 pm,10:00 am,10:00 pm,sandakan_giant,,,
4524,5.854875,118.07215,Sandakan Harbour Square,"Unit No. 101, Phase 1D, Sandakan Harbour Square, 99000 Sandakan, Sabah",0198886910,false,false,false,false,10:00 am,10:00 pm,10:00 am,10:00 pm,sandakan_harbour_square,,,
4525,5.857906,118.078792,"Sandakan, Mile 4","Ground & 1st Floor, Block M, PH II, Lot 99, Bandar Pasaraya, Mile 4, 90309 Sandakan, Sabah",0198886145,false,false,false,true,10:00 am,10:00 pm,10:00 am,10:00 pm,sandakan_mile_4,,,
4526,5.845617,118.057049,"Sandakan, Sibuga Jaya","Ground & 1st Floor, Lot 1, Block A, Bandar Sibuga Jaya, Mile 8, Jalan Labuk, 88000 Sandakan, Sabah",0198886195,false,false,false,false,10:00 am,10:00 pm,10:00 am,10:00 pm,sandakan_sibuga_jaya,,,
4527,1.7398656,111.3370611,Saratok,"Lot No.132, Jalan Bunga Melati, Saratok Town Land District, 95400 Saratok, Sarawak",0198879561,false,false,false,false,10:00 am,10:00 pm,10:00 am,10:00 pm,saratok,,,
4528,1.557918,110.353571,Sarawak Plaza,"Lot 13 & 14, Jalan Tunku Abdul Rahman, 93100 Kuching, Sarawak",0198876540,true,true,false,true,12:00 am,12:00 am,12:00 am,12:00 am,sarawak_plaza,,,
4529,2.131214,111.520231,Sarikei,"Lot 1440-1441,Section 36, Sarikei Land District, 96000 Sibu, Sarawak",0198875490,false,true,false,false,7:00 am,11:00 pm,7:00 am,11:00 pm,sarikei,,,
4530,1.552941,110.335294,Satok,"Lot 284, Section 10, Jalan Satok, 93400 Kuching, Sarawak",0198876141,true,true,false,false,12:00 am,12:00 am,12:00 am,12:00 am,satok,,,
4531,1.558467,110.34274,Saujana,"Lot 6, Section 24, Khoo Hun Yeang Street, 93000 Kuching, Sarawak",0198876148,false,false,false,false,9:00 am,10:00 pm,9:00 am,10:00 pm,saujana,,,
4532,2.953607,101.579789,Saujana Putra,"No. 52, Ground Floor, Jalan SPU1, Bandar Saujana, 42610 Jenjarom Saujana, Selangor",0193361209,false,false,false,false,10:00 am,11:00 pm,10:00 am,11:00 pm,saujana_putra,,,
4533,3.108999,101.622795,Sea Park,"No. 2, Jalan 21/19, Sea Park, 46300 Petaling Jaya, Selangor",0193380152,false,false,false,false,10:00 am,11:00 pm,10:00 am,11:00 pm,sea_park,,,
4534,1.388471,103.593835,SecondLink JB,"Restaurant and Service Area, South Bound, Second Link Expressway, 81550 Gelang Patah, Johor Bahru, Johor",0193384331,false,false,false,false,10:00 am,10:00 pm,10:00 am,10:00 pm,secondlink_jb,,,
4535,3.109447,101.636182,Section 14,"Grd & First Flrs of 4A & First Floor 4B, Jalan 14/20, 46700 Petaling Jaya, Selangor",0193380434,false,false,false,true,11.00AM,11:00 pm,11.00AM,11:00 pm,section_14,,,
4536,3.08514,101.523248,"Section 9, Shah Alam","23-1 & 25-1 (Ground Floor), Jalan Ampuan Zabedah E9/E, Section 9, 40100 Shah Alam, Selangor",0193387926,false,false,false,false,10:30 am,11:00 pm,10:30 am,11:00 pm,section_9_shah_alam,,,
4537,2.504055,102.822743,Segamat,"No. 150 & 151, Jln Sia Her Yam, 85000 Segamat, Johor",0193384597,true,true,false,false,12:00 am,12:00 am,12:00 am,12:00 am,segamat,,,
4538,3.235765,101.671973,Selayang,"No 9, Jalan Sri Selayang, Taman Sri Selayang, 68100 Batu Caves, Selangor",0193373934,false,false,false,false,10:00 am,11:00 pm,10:00 am,11:00 pm,selayang,,,
4539,3.237105,101.644235,Selayang Mall,"Lot LG43, Lower Grd Floor, Selayang Mall Complex, Lot PT 1299, Jalan Ipoh, 68100 Selayang, Selangor",0193374045,false,false,false,false,10:00 am,10:00 pm,10:00 am,10:00 pm,selayang_mall,,,
4540,4.436339,118.531829,Semporna,"Ground & 1st Floor, Lot 36, Block E, 91300 Bandaran Baru Semporna, Sabah",0198887906,false,false,false,false,9:30 am,11:00 pm,9:30 am,11:00 pm,semporna,,,
4541,1.635848,103.665943,Senai Airport,"Lot S1-S4, Public Concourse Aero Mall, Sultan Ismail International Airport, 81250 Johor Bahru, Johor",0193356800,false,true,false,false,7:00 am,11:00 pm,7:00 am,11:00 pm,senai_airport,,,
4542,1.594111,103.646566,Senai Impian Johor Drive Thru,"PTD 103231 Taman Impian Senai Mukim Senai, 81400 Daerah Kulai Jaya, Johor",0193354200,true,true,true,false,12:00 am,12:00 am,12:00 am,12:00 am,senai_impian_johor_drive_thru,,,
4543,2.720247,102.001582,Senawang,"No.24 & 26, Jln Bunga Raya 7, Pusat Perniagaan Senawang, Tmn Tasek Jaya, 30400 Senawang, Negeri Sembilan",0193316679,false,false,false,true,10:00 am,11:00 pm,10:00 am,11:00 pm,senawang,,,
4544,3.185413,101.692095,Sentul Raya,"No. 8, JALAN 14/48A, The Boulevard Shop Office, Off Jalan Sentul, 51000 Kuala Lumpur",0193374565,false,true,false,false,8:00 am,11:00 pm,8:00 am,11:00 pm,sentul_raya,,,
4545,6.061569,116.150078,Sepanggar,"Ground & 1st Floor, Lot No. S3A-06 (corner lot), Taman Indah Permai, Jalan Sepanggar Bay, 8, 8450 Kota Kinabalu, Sabah",0198881079,false,false,false,true,9:30 am,11:30 pm,9:30 am,11:30 pm,sepanggar,,,
4546,2.724518,101.940156,Seremban,"No 20 & 21, Jalan Tuan Sheikh Seremban, 70000 Seremban, Negeri Sembilan",0193316563,false,false,false,true,10:30 am,11:00 pm,10:30 am,11:00 pm,seremban,,,
4547,2.687479,101.912941,Seremban 2 Drive Thru,"Lot 3363 Central Business District Seremban 2, 70300 Seremban, Negeri Sembilan",0193316524,false,true,true,false,7:00 am,2:00 am,7:00 am,2:00 am,seremban_2_drive_thru,,,
4548,2.726286,101.935875,Seremban Drive Thru,"Lot PT 20872 (PT 5729) Mukim Bandar Daerah Seremban, 70000 Seremban, Negeri Sembilan",0193316697,true,true,true,false,12:00 am,12:00 am,12:00 am,12:00 am,seremban_drive_thru,,,
4549,1.505725,103.874499,Seri Alam Drive Thru,"PTD 210469, Bandar Seri Alam, Mukim Plentong, 81700 Johor Bahru, Johor",0193355263,true,true,true,false,12:00 am,12:00 am,12:00 am,12:00 am,seri_alam_drive_thru,,,
4550,1.461733,103.742537,"Seri Gelam Drive Thru, JB","PTB 23183, Mukim Bandar Johor Bahru, Seri Gelam Jalan Sungai Chat, 80100 Johor Bahru, Johor",0193355251,true,true,true,false,12:00 am,12:00 am,12:00 am,12:00 am,seri_gelam_drive_thru_jb,,,
4551,3.030574,101.708964,Seri Kembangan,"Lot No. 19-1 & 19-2, Jalan SP1/2, Taman Serdang Perdana, Seksyen 2, 43300 Seri Kembangan, Selangor",0193382143,false,true,false,true,10:00 am,11:00 pm,10:00 am,11:00 pm,seri_kembangan,,,
4552,1.1793129,110.5650774,Serian Baru,"Lot 1163, Ground & First Floor, Wisma Cinmuk, Serian Town District, 94700 Serian, Sarawak",0198879736,false,false,false,false,10:00 am,10:00 pm,10:00 am,10:00 pm,serian_baru,,,
4553,3.102102,101.444961,Setia Alam Drive Thru,"No 4, Persiaran Setia Impian Bandar Setia Alam, Section U13, 40170 Shah Alam, Selangor",0193362131,true,true,true,false,12:00 am,12:00 am,12:00 am,12:00 am,setia_alam_drive_thru,,,
4554,3.10898,101.460303,Setia City Mall,"Lot LG 20, LG Floor, Setia City Mall, Setia Alam, 40170 Shah Alam, Selangor",0193362092,false,false,false,false,10:00 am,10:00 pm,10:00 am,10:00 pm,setia_city_mall,,,
4555,1.548727,103.718143,Setia Tropika Drive thru,"No.6 Jalan Setia Tropika 1/21, Taman Setia Tropika, 81000 Johor Bahru, Johor",0193353093,true,true,true,false,12:00 am,12:00 am,12:00 am,12:00 am,setia_tropika_drive_thru,,,
4556,3.177888,101.742672,Setiawangsa,"346 Jalan Setiawangsa 10, Ground & 1st Floor, Taman Setiawangsa, 54200 Kuala Lumpur",0193360945,false,false,false,true,10:30 am,11:00 pm,10:30 am,11:00 pm,setiawangsa,,,
4557,5.521116,102.747542,Setiu,"PT 6376, Bandar Permaisuri, 22100 Setiu, Terengganu",0193386219,false,false,false,false,10:30 am,11:00 pm,10:30 am,11:00 pm,setiu,,,
4558,3.070782,101.517041,Shah Alam 1,"Ground Floor, Fasa 3, Kompleks PKNS, 40990 Shah Alam, Selangor",0193361352,false,true,false,false,8:00 am,10:00 pm,8:00 am,10:00 pm,shah_alam_1,,,
4559,3.04407,101.518153,Shah Alam 2,"No. 39 Jalan 18/ B, Section 18, 40000 Shah Alam, Selangor",0193361675,false,true,false,false,7:00 am,2:00 am,7:00 am,2:00 am,shah_alam_2,,,
4560,3.067171,101.490834,Shah Alam Drive Thru Section 7,"Lot 1508, Jalan Plumbum 2-7/2, Seksyen 7, 40100 Shah Alam, Selangor",0193361605,true,true,true,false,12:00 am,12:00 am,12:00 am,12:00 am,shah_alam_drive_thru_section_7,,,
4561,3.071789,101.50846,Shah Alam Section 2 Drive Thru,"Lot 2, Jalan Bunga Melor 2/18, Section 2, 40000 Shah Alam, Selangor",0193361536,true,true,true,false,12:00 am,12:00 am,12:00 am,12:00 am,shah_alam_section_2_drive_thru,,,
4562,3.05636,101.541875,Shah Alam Section 20,"7 & 9, Ground Floor, Jalan Singa 20/C, Section 20, 40300 Shah Alam, Selangor",0193361695,false,false,false,false,10:30 am,11:00 pm,10:30 am,11:00 pm,shah_alam_section_20,,,
4563,3.122918,101.593567,Shell NKVE Drive Thru,"Lot PT 33659 & PT 33788 KM 15.8, Lebuh Raya Utara Selatan (Arah Utara), PJU 1A, 47301 Petaling Jaya, Selangor",0193380506,true,true,true,false,12:00 am,12:00 am,12:00 am,12:00 am,shell_nkve_drive_thru,,,
4564,1.8220444,103.3150499,Shell Simpang Renggam Drive Thru,"Shell Gas Station,. 794, GM 399, Mukim Renggam, Daerah Kluang, 86200 Simpang Renggam, Johor",0193384745,false,true,true,false,8:00 am,11:30 pm,8:00 am,11:30 pm,shell_simpang_renggam_drive_thru,,,
4565,2.290064,111.827808,Sibu 1,"G/F, No. 19, Jalan Wong Nai Siong, 96000 Sibu, Sarawak",0198879467,false,false,false,false,9:00 am,12:00 am,9:00 am,12:00 am,sibu_1,,,
4566,2.305367,111.849591,Sibu Bus Terminal,"Lot 6190 & 6191, Block 10, Seduan Land District, Off Jalan Pahlawan, (Near to Giant), 96000 Sibu, Sarawak",0198879340,false,false,false,false,10:00 am,10:00 pm,10:00 am,10:00 pm,sibu_bus_terminal,,,
4567,2.2404824,111.9758955,Sibu Jaya,"Lot 1192, Block 1, Menyan Land District, 96000 Sibu, Sarawak",0198879410,false,false,false,false,10:00 am,11:30 pm,10:00 am,11:30 pm,sibu_jaya,,,
4568,1.3640038,110.4027497,Siburan,"Lot 1984, Block 6, Santah Segu Land District, 17th Mile Siburan, Kuching-Serian Road, 94200 Kuching, Sarawak",0198879627,false,false,false,false,10:00 am,10:00 pm,10:00 am,10:00 pm,siburan,,,
4569,5.815478,100.740732,"Sik, Kedah","Lot No. 23A, Bandar baru Sik, 08200 Sik, Kedah",0193316091,false,false,false,false,10:30 am,11:00 pm,10:30 am,11:00 pm,sik_kedah,,,
4570,4.60927,101.061845,Silibin,"No 22 & 22A, Jalan Kledang Raya 21, Taman Alkaff, 30100 Ipoh, Perak",0193378867,false,false,false,false,10:30 am,11:00 pm,10:30 am,11:00 pm,silibin,,,
4571,5.279119,100.477246,Simpang Ampat,"Lot No 6GF & 8GF & 1st Floor, Jalan Keruing , Kawasan Perindustrian Simpang Ampat, 14100 Simpang Ampat Penang",0193313561,false,false,false,false,10:30 am,11:00 pm,10:30 am,11:00 pm,simpang_ampat,,,
4572,4.820502,100.706181,Simpang Taiping Drive Thru,"Lot No. 648, District Larut & Matang, Pekan Simpang Perak, 30100 Ipoh, Perak",0193372682,true,true,true,false,12:00 am,12:00 am,12:00 am,12:00 am,simpang_taiping_drive_thru,,,
4573,2.310029,111.84004,Sing Kwong,"Gr.& 1st Floor, Lot 3, Block B, Sing Kwong Complex, Jalan Salim, 96000, Sibu, Sarawak",0198879403,false,false,false,false,9:30 am,11:30 pm,9:30 am,11:30 pm,sing_kwong,,,
4574,5.0774421,115.5492256,Sipitang,"Ground & 1st Floor, Lot 12, Sipitang Shophouse, 89850 District Of Sipitang, Sabah",0198883724,false,false,false,false,10:00 am,11:00 pm,10:00 am,11:00 pm,sipitang,,,
4575,4.216893,100.69535,Sitiawan,"Ground Floor, No. 1, Jalan Haji Mohd Ali, 32000 Sitiawan, Perak",0193371127,true,true,false,false,12:00 am,12:00 am,12:00 am,12:00 am,sitiawan,,,
4576,1.541803,103.660023,Skudai Parade,"Lot No, 01-51, 01-52 & 01-53, 1st Floor, Lot 1100, Jln Skudai Batu 10, 81300 Skudai, Johor",0193316871,false,false,false,false,10:00 am,10:00 pm,10:00 am,10:00 pm,skudai_parade,,,
4577,3.840761,101.397232,Slim River,"No. 8 & 10, Jalan Makmur Utama, Taman Slim Makmur, 35800 Slim River, Perak",0193372653,false,false,false,false,10:30 am,11:00 pm,10:30 am,11:00 pm,slim_river,,,
4578,1.236842,111.459843,Sri Aman,"Sublot 19 & 20, Parent Lot 1519, Block 2, Simanggang Town District, 95000 Seri Aman, Sarawak",0198879648,false,false,false,false,9:30 am,10:00 pm,9:30 am,10:00 pm,sri_aman,,,
4579,3.237719,101.697513,Sri Gombak,"No. 7, Ground Floor, Jalan SG 1/6, Taman Industrial Bolton,, 68100 Batu Caves, Selangor",0193373952,false,false,false,true,10:00 am,2:00 am,10:00 am,2:00 am,sri_gombak,,,
4580,4.366155,100.977969,Sri Iskandar Drive Thru,"Lot HS (D) 12038 PT 11378 Mukim Bota Daerah Perak, 32610 Bota, Perak",0193377985,false,true,true,false,8:00 am,2:00 am,8:00 am,2:00 am,sri_iskandar_drive_thru,,,
4581,3.0774238,101.6633504,Sri Jati Puchong Drive Thru,"Jalan Sri Jati 1, Jalan Puchong, Off Jalan Kelang Lama, 52000 Kuala Lumpur",0193381386,true,true,true,false,12:00 am,12:00 am,12:00 am,12:00 am,sri_jati_puchong_drive_thru,,,
4582,3.008093,101.713534,Sri Serdang,"Ground Floor, No. 13G, Jalan 18/35, Taman Sri Serdang, Phase 8, 43300 Seri Kembangan, Selangor",0193382168,false,true,false,false,8:00 am,11:00 pm,8:00 am,11:00 pm,sri_serdang,,,
4583,3.186517,101.650888,Sri Sinar Segambut,"No 32 & 34 Jalan 8/38A Taman Sri Sinar Indah Segambut, 51200 Kuala Lumpur",0193375029,false,false,false,false,10:00 am,11:00 pm,10:00 am,11:00 pm,sri_sinar_segambut,,,
4584,3.075537,101.588988,SS 15,"No. 17, Jln SS15/4G, 47500 Subang Jaya, Selangor",0193375104,false,false,false,true,10:00 am,11:00 pm,10:00 am,11:00 pm,ss_15,,,
4585,3.12021,101.621703,SS 2,"Grd & 1st Floors, No. 56, Jalan SS2/67, 47300 Petaling Jaya, Selangor",0193380578,false,false,false,false,10:30 am,11:00 pm,10:30 am,11:00 pm,ss_2,,,
4586,6.123368,102.24301,Stadium Kota Bharu Drive Thru,"Sec 12, Bandar Kota Bahru, 15200 Jajahan Kota Bahru, Kelantan",0193357687,true,true,true,false,12:00 am,12:00 am,12:00 am,12:00 am,stadium_kota_bharu_drive_thru,,,
4587,3.098962,101.646173,State,"No 49 & 51, Ground Floor, Jalan 52/12 PJ New Town, 46200 Petaling Jaya, Selangor",0193380242,false,false,false,false,10:30 am,11:00 pm,10:30 am,11:00 pm,state,,,
4588,1.463405,103.754761,Stulang Laut Johor Drive Thru,"Sebahagian PTB 23174, Jalan Ibrahim Sultan Mukim Bandar Johor Bahru, 80300 Johor Bahru, Johor",0193354503,true,true,true,false,12:00 am,12:00 am,12:00 am,12:00 am,stulang_laut_johor_drive_thru,,,
4589,3.155214,101.545611,Subang 2 Shah Alam Drive Thru,"No 1, Jalan Apollo CH U5/CH, Seksyen U5, 40150 Shah Alam, Selangor",0193363270,true,true,true,false,12:00 am,12:00 am,12:00 am,12:00 am,subang_2_shah_alam_drive_thru,,,
4590,3.082252,101.586052,Subang Parade,"LG 29 E Subang Parade Shopping Centre No 5, Jln SS 16/1, 47500 Subang Jaya, Selangor",0193371194,false,false,false,false,10:00 am,10:00 pm,10:00 am,10:00 pm,subang_parade,,,
4591,6.0390414,116.1436258,Sulaman Drive Thru,"Lot 1A of NT013060752, Jalan Sulaman, Kampong Sabagon, Menggatal, 88450 Kota Kinabalu, Sabah",0198883498,true,true,true,false,12:00 am,12:00 am,12:00 am,12:00 am,sulaman_drive_thru,,,
4592,1.454914,110.458264,Summer Mall,"Ground Floor, G36-38, G87-89, Lot 7455, Block 1, The Summer Shopping Mall, Jalan Dato Mohd Musa, 93400 Kota Samarahan, Sarawak",0198879324,false,false,false,false,10:00 am,10:00 pm,10:00 am,10:00 pm,summer_mall,,,
4593,3.060039,101.592953,Summit City,"Lot No LG41, LG73, LG75, Lower Ground Floor, The Summit, Subang USJ, Persiaran Kewajipan USJ 1, UEP, 47600 Subang Jaya, Selangor",0193371362,false,false,false,false,10:00 am,10:00 pm,10:00 am,10:00 pm,summit_city,,,
4594,5.230472,100.492978,Sungai Bakap,"No 36 Jalan Gemalan Indah1, Taman Gemalan Indah, 14200 Sungai Bakap, Seberang Prai Selatan, Penang",0193314080,false,false,false,false,10:30 am,11:00 pm,10:30 am,11:00 pm,sungai_bakap,,,
4595,3.672254,100.986999,Sungai Besar,"Lot PT 1588, Medan Sungai Besar, Off Jalan Sg Limau, 45300 Sungai Besar, Selangor",0193364354,false,true,false,false,8:00 am,2:00 am,8:00 am,2:00 am,sungai_besar,,,
4596,3.094045,101.701351,Sungai Besi,"No 44 Jalan 7/108C Taman Sg Besi, Off Jalan Sg Besi, 57100 Kuala Lumpur",0193371863,false,true,false,false,8:00 am,11:00 pm,8:00 am,11:00 pm,sungai_besi,,,
4597,3.03651,101.706438,Sungai Besi Toll Drive Thru,"Lot PT 43, Km 47 Lebuhraya KL - Seremban, 43300 Seri Kembangan, Selangor",0193371871,true,true,true,false,12:00 am,12:00 am,12:00 am,12:00 am,sungai_besi_toll_drive_thru,,,
4598,3.203272,101.559635,Sungai Buloh 1,"Lot 2105, Jalan 3/1 Pusat Bandar Baru Sungei Buloh, 47000 Sungai Buloh, Selangor",0193363541,false,false,false,false,10:00 am,11:00 pm,10:00 am,11:00 pm,sungai_buloh_1,,,
4599,3.211568,101.564536,Sungai Buloh 2,"Lot 2394, Jalan 1A/3, 47000 Bandar Baru Sg Buloh, Selangor",0193363499,false,true,false,true,8:00 am,11:00 pm,8:00 am,11:00 pm,sungai_buloh_2,,,
4600,2.990122,101.776663,Sungai Chua,"No. 1, Jalan M/J3, Taman Majlis Jaya, Sg Chua, 43000 Kajang, Selangor",0193377349,false,true,false,false,8:00 am,11:00 pm,8:00 am,11:00 pm,sungai_chua,,,
4601,5.352721,100.301317,Sungai Dua,"No 559, Jalan Sungai Dua Sri Saujana, 11700 Penang",0193312309,true,true,false,true,12:00 am,12:00 am,12:00 am,12:00 am,sungai_dua,,,
4602,2.64149,101.714884,Sungai Pelek,"93-8 Jalan Besar Sg Pelek, 43950 Sepang, Selangor",0193371791,false,false,false,false,10:00 am,11:00 pm,10:00 am,11:00 pm,sungai_pelek,,,
4603,5.6425,100.488351,Sungai Petani 1,"No 27, Kompleks Seri Temin, Jalan Ibrahim Sungei Petani, 08000 Sungai Petani, Kedah",0193314372,true,true,false,false,12:00 am,12:00 am,12:00 am,12:00 am,sungai_petani_1,,,
4604,5.621643,100.539633,Sungai Petani Drive Thru (Bandar Puteri),"Lot 70276 (47452), Fasa 4 Bandar Puteri Jaya, Mukim Sungai Petani, 08000 Sungai Petani, Kedah",0193315453,true,true,true,false,12:00 am,12:00 am,12:00 am,12:00 am,sungai_petani_drive_thru_(bandar_puteri),,,
4605,4.818805,101.073443,Sungai Siput,"Lot 325 - 326, Main Road, 31100 Sg Siput, Perak",0193377950,false,false,false,false,10:00 am,11:00 pm,10:00 am,11:00 pm,sungai_siput,0.00020699999999962415,0.00027509999995345424,0.0003442804234548269
4606,2.290152,102.139616,Sungai Udang Melaka,"No 1 & 1-1, Jalan Kerambit 1, Bandar Baru Sungai Udang, 76300 Melaka",0193366298,false,true,false,false,9:00 am,11:00 pm,9:00 am,11:00 pm,sungai_udang_melaka,,,
4607,3.144994,101.711147,Sungai Wang,"Concourse Level Sungei Wang Plaza 111 Jalan Bukit Bintang, 55100 Kuala Lumpur",0193371051,false,false,false,false,10:00 am,10:00 pm,10:00 am,10:00 pm,sungai_wang,,,
4608,5.398978,100.397891,Sunway Carnival Mall,"Lot L-40, Lower Ground Floor Sunway Carnival Shopping Mall, Bandar Sunway, 13700 Seberang Jaya, Penang",0193313280,false,false,false,false,10:00 am,10:00 pm,10:00 am,10:00 pm,sunway_carnival_mall,,,
4609,3.072707,101.609218,Sunway Metro / Bandar Sunway,"No.60 & 62, Jalan PJS 11/28, Bandar Sunway (Sunway Metro) Petaling Jaya, 46150 Petaling Jaya, Selangor",0193380405,true,true,false,true,12:00 am,12:00 am,12:00 am,12:00 am,sunway_metro_/_bandar_sunway,,,
4610,3.073313,101.607585,Sunway Pyramid,"Lot LL2.40, Lower Level 2, Sunway Pyramid Mega Shopping Mall, Bandar Sunway, 46150 Petaling Jaya, Selangor",0193371213,false,true,false,false,8:00 am,11:00 pm,8:00 am,11:00 pm,sunway_pyramid,,,
4611,5.987413,116.077212,Suria Sabah,"Lot No. B-75, Lower Ground Floor, Suria Sabah Shopping Mall, 88400 Kota Kinabalu, Sabah",0198883289,false,false,false,false,10:00 am,10:00 pm,10:00 am,10:00 pm,suria_sabah,,,
4612,1.517562,103.672418,Sutera Mall Skudai,"NO. L2-027, TKT. 2, Sutera Mall, Jalan Sutera Tanjung 8/4, Taman Sutera Utama, 81300 Johor Bahru, Johor",0193352839,false,false,false,false,10:30 am,10:30 pm,10:30 am,10:30 pm,sutera_mall_skudai,,,
4613,1.529737,110.378281,Tabuan Jaya,"Shoplot 8912, Block 11 MTLD, Tabuan Jaya, 93350 Kuching, Sarawak",0198876549,false,false,false,false,12:00 am,12:00 am,12:00 am,12:00 am,tabuan_jaya,,,
4614,5.993691,116.138234,"Taipan, Inanam","Lot No. 1 & 2, Ground Floor, Block F, Taipan Inanam, 88450 Kota Kinabalu, Sabah",0198881578,false,false,false,false,9:30 am,12:00 pm,9:30 am,12:00 pm,taipan_inanam,,,
4615,4.854088,100.737586,Taiping,"No 25 & 25A, Ground Floor, Market Square, Jalan Kota, 34000 Taiping, Perak",0193373171,true,true,false,false,12:00 am,12:00 am,12:00 am,12:00 am,taiping,,,
4616,5.328551,100.447373,Taman Bukit Minyak,"No 1 Tgkt Bukit Minyak 7 Taman Bukit Minyak Bukit Mertajam, 14000 Penang",0193313966,false,false,false,false,10:30 am,11:00 pm,10:30 am,11:00 pm,taman_bukit_minyak,0.018512799999993668,0.00763900000001172,0.020026933985009904
4617,1.602199,103.814372,Taman Bukit Tiram 3,"No 1, Jalan Resam 13, Taman Bukit Tiram, 81800 Ulu Tiram, Johor",0193353561,false,false,false,false,10:30 am,11:00 pm,10:30 am,11:00 pm,taman_bukit_tiram_3,,,
4618,1.50675,103.922457,Taman Cahaya Masai,"No 17-19, Jalan Intan 13, Taman Cahaya Masai, 81700 Pasir Gudang, Johor",0193356774,false,false,false,false,10:30 am,11:00 pm,10:30 am,11:00 pm,taman_cahaya_masai,,,
4619,3.136737,101.747069,Taman Cempaka (Axis Atrium),"Lot No G-12 & GAF 13A, First Floor Axis Atrium, Jalan Cempaka, Ampang, 68000 Ampang, Selangor",0193375379,false,false,false,true,10:00 am,11:00 pm,10:00 am,11:00 pm,taman_cempaka_(axis_atrium),,,
4620,3.081361,101.738041,Taman Connaught,"No 44, Ground & Mezzanine Floor, Jalan Cerdas, Taman Connaught, 56000 Cheras, Kuala Lumpur",0193371654,true,true,false,true,12:00 am,12:00 am,12:00 am,12:00 am,taman_connaught,,,
4621,3.099673,101.686505,Taman Danau Desa,"No. 25, Ground & 1st Floor, Block C, Jalan 2/109F, Taman Danau Desa, 58100 Kuala Lumpur",0193360217,false,false,false,true,10:00 am,11:00 pm,10:00 am,11:00 pm,taman_danau_desa,,,
4622,1.543856,103.764828,Taman Daya,"No. 19, Jalan Sagu 7, Taman Daya, 81100 Johor Bahru, Johor",0193356294,false,false,false,false,10:00 am,11:00 pm,10:00 am,11:00 pm,taman_daya,,,
4623,1.568318,103.803236,Taman Gaya,"No.21 Jalan Sasa 6, Taman Gaya, 81800 Ulu Tiram, Johor",0193356503,false,false,false,false,10:30 am,11:00 pm,10:30 am,11:00 pm,taman_gaya,,,
4624,4.773165,100.914848,"Taman Lavender, Kuala Kangsar","No. 14 & 14A, Persiaran Lavender, Taman Lavender, 33000 Kuala Kangsar, Perak",0193370896,false,false,false,false,10:30 am,11:00 pm,10:30 am,11:00 pm,taman_lavender_kuala_kangsar,,,
4625,3.127487,101.732281,Taman Maluri,"Ground Floor Jaya Jusco Taman Maluri Shopping Complex Jalan Jejaka Cheras, 55100 Kuala Lumpur",0193371641,false,false,false,false,9:00 am,11:00 pm,9:00 am,11:00 pm,taman_maluri,,,
4626,3.20941,101.748976,Taman Melawati,"Ground & 1st Floor, No 241, Jalan Bandar 13, Taman Melawati, 53100 Kuala Lumpur",0193360882,false,false,false,true,10:00 am,11:00 pm,10:00 am,11:00 pm,taman_melawati,,,
4627,1.524152,103.786079,Taman Molek,"No 21 Jalan Molek 1/29, Taman Molek, Johor Bahru, Johor",0193356403,false,false,false,false,10:30 am,11:00 pm,10:30 am,11:00 pm,taman_molek,0.014178282964223188,0.001088142848601592,0.014219977590437485
4628,1.480109,103.683921,Taman Perling Drive Thru,"Lot 590/591, Jalan Persiaran Perling, Taman Perling, 81200 Johor Bahru, Johor",0193353863,true,true,true,false,12:00 am,12:00 am,12:00 am,12:00 am,taman_perling_drive_thru,,,
4629,3.120317,101.762906,Taman Putra,"33, Jalan Bunga Tanjung 9C, Taman Putra, Ampang, 68000 Ampang, Selangor",0193375379,false,true,false,false,8:00 am,11:00 pm,8:00 am,11:00 pm,taman_putra,,,
4630,4.584448,101.045885,"Taman Rishah Farlim, Ipoh","No 107 & 107A (Extraland) Lengkuk Desa Rishah 1, 30100 Ipoh, Perak",0193372164,false,false,false,false,10:00 am,11:00 pm,10:00 am,11:00 pm,taman_rishah_farlim_ipoh,,,
4631,5.614192,100.483308,Taman Sejati Indah,"Taman Sejati Grd & 1st Floor, Lot No. C 119, Lorong 10, Taman Sejati Indah, Sg Petani, 08000 Kedah, Kedah",0193315034,false,false,false,true,10:00 am,11:00 pm,10:00 am,11:00 pm,taman_sejati_indah,,,
4632,4.37089,113.968963,Taman Selera Drive Thru,"Ground & First Floor, Block A, Lot 3559, Taman Selera, Miri Concession Land District, Jalan Datuk Oyang Lawai Jau, 98000 Miri, Sarawak",0198879320,true,true,true,false,12:00 am,12:00 am,12:00 am,12:00 am,taman_selera_drive_thru,,,
4633,5.377524,100.540694,Taman Semarak,"No. 54, Lorong Semerak 1, Taman Semarak, 09000 Kulim, Kedah",0193315506,false,false,false,false,10:30 am,11:00 pm,10:30 am,11:00 pm,taman_semarak,,,
4634,3.010749,101.465338,Taman Sentosa Drive Thru,"Lot 54837, Jalan Dato Yusof Shahbudin 29, Taman Sentosa, 41200 Klang, Selangor",0193364225,true,true,true,false,12:00 am,12:00 am,12:00 am,12:00 am,taman_sentosa_drive_thru,,,
4635,3.303642,101.599347,Taman Setia Rawang,"No. 2, Jalan Setia Rawang 1 Taman Setia Rawang, 16th Mile, 48000 Rawang, Selangor",0193381904,false,false,false,false,10:00 am,11:00 pm,10:00 am,11:00 pm,taman_setia_rawang,,,
4636,3.074277,101.649967,Taman Sri Manja Square 2,"Lot No 2-1 Ground & 1st Floor, Sri Manja Square 2, Jalan PJS3/61, Taman Sri Manja, 46000 Petaling Jaya, Selangor",0193380689,false,false,false,false,9:30 am,11:00 pm,9:30 am,11:00 pm,taman_sri_manja_square_2,,,
4637,3.031965,101.534974,Taman Sri Muda,"No. 68 Jalan 25/62 Taman Sri Muda, 40000 Shah Alam, Selangor",0193361677,false,false,false,false,10:00 am,11:00 pm,10:00 am,11:00 pm,taman_sri_muda,,,
4638,3.02515,101.740548,Taman Taming Jaya,"Lot No. 2-3A, Ground Floor, Wisma Pausan, Taman Taming Jaya, 43300 Seri Kembangan, Selangor",0193361677,false,true,false,true,8:00 am,11:00 pm,8:00 am,11:00 pm,taman_taming_jaya,0.009211749999999963,0.0044738399999317835,0.010240682711982094
4639,3.770732,103.232031,"Taman TAS, Kuantan","No. A1, Ground to 2nd Floor, Lorong Pandan Damai 2/2, Taman Pandan Permai, Batu 7, Taman Tas, 26070 Kuantan, Pahang",0193363546,false,false,false,false,10:30 am,11:00 am,10:30 am,11:00 am,taman_tas_kuantan,,,
4640,5.112147,100.481711,Taman Wawasan,"Lot No. 16, Jalan Wawasan 4, Taman Wawasan, 34200 Parit Buntar, Perak",0193378013,false,false,false,false,10:30 am,11:00 pm,10:30 am,11:00 pm,taman_wawasan,,,
4641,2.467592,102.231064,Tampin Square,"Lot No. 65, Tampin Square, Jalan Besar, 73000 Tampin, Negeri Sembilan",0193384220,false,false,false,false,10:30 am,11:00 pm,10:30 am,11:00 pm,tampin_square,,,
4642,5.806426,102.147608,Tanah Merah,"No 509, Jln Taman Hiburan, 17500 Tanah Merah, Kelantan",0193358826,false,true,false,false,8:00 am,11:00 pm,8:00 am,11:00 pm,tanah_merah,,,
4643,2.288147,111.830632,Tanahmas,"No. 78, Lot 170, Jalan Nyabor, 96000 Sibu, Sarawak",0198879546,true,true,false,false,12:00 am,12:00 am,12:00 am,12:00 am,tanahmas,,,
4644,2.269919,102.541702,Tangkak,"No 213D & 213E, Jalan Payamas, 89000 Tangkak, Johor",0193384740,false,true,false,false,8:00 am,11:00 pm,8:00 am,11:00 pm,tangkak,,,
4645,5.952886,116.055565,Tanjung Aru,"Ground Floor, Shoplot No 6, Jalan Setia, Tanjung Aru, 88858 Kota Kinabalu, Sabah",0198880907,false,false,false,false,10:00 am,10:30 pm,10:00 am,10:30 pm,tanjung_aru,,,
4646,3.425066,101.177184,Tanjung Karang,"No. 1 Jalan PB 1/1, Pusat Bandar Tg Karang, 45500 Tg Karang, Selangor",0193382265,false,true,false,false,8:00 am,11:00 pm,8:00 am,11:00 pm,tanjung_karang,,,
4647,2.152521,104.005509,Tanjung Leman Kiosk,"Lot 154, Terminal Ferry Tg. Leman, 86800 Tg. Leman, Mersing, Johor",0193384563,false,false,false,false,10:30 am,10:00 pm,10:30 am,10:00 pm,tanjung_leman_kiosk,,,
4648,3.680876,101.521545,Tanjung Malim,"No 1, Jalan Haji Mustapha Raja, Kemala, 35900 Tanjung Malim, Selangor",0193372033,false,true,false,false,8:00 am,11:00 pm,8:00 am,11:00 pm,tanjung_malim,,,
4649,5.449501,100.305587,Tanjung Tokong Drive Thru,"No. 10-8-01 Presint 10, Jalan Tanjung Tokong, 10470 Tanjung Tokong, Penang",0193386447,true,true,true,false,12:00 am,12:00 am,12:00 am,12:00 am,tanjung_tokong_drive_thru,,,
4650,4.197057,101.260983,Tapah,"Ground Floor, No. 6, Main Road, 35000 Tapah, Perak",0193371839,false,false,false,false,10:30 am,11:00 pm,10:30 am,11:00 pm,tapah,,,
4651,4.653378,101.107119,Tasek Ipoh Drive Thru,"Lot PT 217643, Jalan Kuala Kangsar,Taman Tasek Mutiara, 31400 Ipoh, Perak",0193372201,true,true,true,false,12:00 am,12:00 am,12:00 am,12:00 am,tasek_ipoh_drive_thru,,,
4652,2.980999,101.602073,Tasik Prima Puchong Drive Thru,"Lot 5665, Persiaran Taman Tasik Prima 3, Taman Tasik Prima, 47100 Puchong, Selangor",0193381461,true,true,true,false,12:00 am,12:00 am,12:00 am,12:00 am,tasik_prima_puchong_drive_thru,,,
4653,4.246039,117.882528,Tawau Giant,"Lot No. G1, G2 &G3, Grd. Floor, Giant Superstore Tawau, Jalan Datuk Chong Thien Vun, 91000 Tawau, Sabah",0198887360,false,false,false,true,10:00 am,10:00 pm,10:00 am,10:00 pm,tawau_giant,,,
4654,4.025474,101.020714,Teluk Intan,"No 17-21, Ground Floor,Jalan Mahkota, 36000 Teluk Intan, Perak",0193377981,true,true,false,false,12:00 am,12:00 am,12:00 am,12:00 am,teluk_intan,,,
4655,4.0100428,101.0091128,Teluk Intan Drive Thru,"Lot 1789, Daerah Hilir Perak, 36000 Bandar Teluk Intan, Perak",0193372962,false,false,true,false,10:30 am,11:00 pm,10:30 am,11:00 pm,teluk_intan_drive_thru,,,
4656,2.909506,101.470738,Teluk Panglima Garang,"No. 60, Jalan JU 2, Taman Jaya Utama, Teluk Panglima Garang, Kuala Langat, 42500 Banting, Selangor",0193376047,false,false,false,false,10:00 am,11:00 pm,10:00 am,11:00 pm,teluk_panglima_garang,,,
4657,3.042727,101.426768,Teluk Pulai,"No. 3, Off Jalan Teluk Pulai, 41100 Klang, Selangor",0193364294,false,true,false,false,8:00 am,11:00 pm,8:00 am,11:00 pm,teluk_pulai,,,
4658,5.626997,117.13368,Telupid,"Lot No.5, Bdr Telupid Jaya, Pekan Telupid Baru, 89300 Telupid, Sabah.",0198884200,false,false,false,false,10:00 am,10:00 pm,10:00 am,10:00 pm,telupid,,,
4659,3.448173,102.415537,Temerloh,"Ground & 1st Floors, PT 3853 Jln Ahmad Shah,, 28000 Temerluh, Pahang",0193359867,false,false,false,false,10:30 am,11:00 pm,10:30 am,11:00 pm,temerloh,,,
4660,3.466053,102.390981,Temerloh Drive Thru,"Lot 266, Jalan Chengal Baru, 1/1 Pusat Perniagaan Chengal, 28000 Temerloh, Pahang",0193359915,true,true,true,false,12:00 am,12:00 am,12:00 am,12:00 am,temerloh_drive_thru,,,
4661,5.123436,115.943495,Tenom,"Lot 21, Block C, Tenom Commercial Centre, Jalan Toh Puan Hajjah Kusnan, 89000 Tenom, Sabah",0198889582,false,false,false,false,10:00 am,10:30 pm,9:30 am,10:00 pm,tenom,,,
4662,2.722858,101.936888,"Terminal 1, Seremban","Lot LG 33, Lower Ground Floor, Terminal One Shopping Centre, 20B Jalan Lintang, 70000 Seremban, Negeri Sembilan",0193316610,false,false,false,false,10:00 am,10:00 pm,10:00 am,10:00 pm,terminal_1_seremban,,,
4663,5.943712,116.0509,Terminal 2,"Lot L2L10, Mezzanine Level, Low Carrier Terminal, International Airport, 88200 Kota Kinabalu, Sabah",0198883083,false,false,false,false,10:00 am,10:00 pm,10:00 am,10:00 pm,terminal_2,,,
4664,1.495044,103.743816,Terminal Larkin Drive Thru,"PTB 17639-A, Jalan Kenyalang, 82350 Johor Bahru, Johor",0193353497,true,true,true,false,12:00 am,12:00 am,12:00 am,12:00 am,terminal_larkin_drive_thru,0.002384999999998527,0.0024569000000127517,0.003424117785657443
4665,6.12862,100.342686,Tesco Alor Setar (Mergong),"Lot No G 20 Ground Floor Tesco Hypermarket Alor Star, 05150 Alor Star, Kedah",0193315087,false,false,false,false,9:30 am,11:00 pm,9:30 am,11:00 pm,tesco_alor_setar_(mergong),,,
4666,3.143625,101.741893,Tesco Ampang,"Lot No 10, Ground Floor, Tesco Hypermarket Ampang, 68000 Ampang, Selangor",0193375707,false,false,false,false,9:00 am,11:00 pm,9:00 am,11:00 pm,tesco_ampang,,,
4667,3.118749,101.576263,Tesco Ara Damansara,"Lot G3 & G4, Tesco Ara Damansara, 47301 Petaling Jaya, Selangor",0193380722,false,false,false,false,10:00 am,10:30 pm,10:00 am,10:30 pm,tesco_ara_damansara,,,
4668,2.281517,102.215917,Tesco Bandar Cheng,"Lot No G14 & G15, No.1 Jalan Inang 3, Taman Paya Rumput Utama, 75400 Melaka",0193366217,false,true,false,false,8:00 am,11:00 pm,8:00 am,11:00 pm,tesco_bandar_cheng,,,
4669,5.315927,100.477062,Tesco Bukit Mertajam,"Lot G-04 & G-05, Tesco Bukit Mertajam, 2323 Jalan Rozhan, Pusat Perniagaan Seri Impian Alma, 14000 Bukit Mertajam, Penang",0193313460,false,false,false,false,9:30 am,10:30 pm,9:30 am,10:30 pm,tesco_bukit_mertajam,,,
4670,3.005892,101.441111,"Tesco Bukit Tinggi, Klang","Lot 22, Ground Floor, Tesco Klang, No 1 Jalan Batu 2 1/2, Jalan Langat, 41200 Klang, Selangor",0193363602,false,true,false,false,8:00 am,11:00 pm,8:00 am,11:00 pm,tesco_bukit_tinggi_klang,,,
4671,3.159726,101.613164,Tesco Damansara,"Lease 8, 10 & 12 (Portion) Tesco Mutiara Damansara, No 8 Jln PJU 7/4, 47800 Petaling Jaya, Selangor",0193361081,false,true,false,false,8:00 am,11:00 pm,8:00 am,11:00 pm,tesco_damansara,,,
4672,1.521702,103.815466,Tesco Extra Plentong,"Lot No. G9, Ground Floor, Tesco Extra Plentong, 81750 Johor Bahru, Johor",0193352704,false,false,false,false,9:30 am,11:00 pm,9:30 am,11:00 pm,tesco_extra_plentong,,,
4673,5.263523,100.484601,Tesco Extra Prai,"Lot G2, Ground Floor Tesco Extra Prai Prai, 13700 Penang",0193313390,false,false,false,false,9:30 am,10:30 pm,9:30 am,10:30 pm,tesco_extra_prai,,,
4674,3.225149,101.67047,Tesco Extra Selayang,"Lot No F1 1st Floor, Tesco Extra Selayang, No 1801, Jalan Ipoh, Mukim Batu, 50200 Kuala Lumpur",0193374407,false,false,false,false,10:00 am,10:00 pm,10:00 am,10:00 pm,tesco_extra_selayang,,,
4675,4.615902,101.118673,Tesco Ipoh,"Lot No 4,5 & 6 Ground Floor Tesco Ipoh No 2 Jalan Jambu Taman The Teik Seng, 31400 Ipoh, Perak",0193389828,false,false,false,false,10:30 am,11:00 pm,10:30 am,11:00 pm,tesco_ipoh,,,
4676,5.378136,100.31499,Tesco Jelutong Penang,"Lot 6 Ground Floor Tesco Penang, Lot A3 - 4, Jalan Udini, 11700 Pulau Pinang",0193310270,false,false,false,false,9:00 am,11:00 pm,9:00 am,11:00 pm,tesco_jelutong_penang,,,
4677,3.0045,101.786156,Tesco Kajang,"Lot No.10, Ground Floor Tesco Hypermarket Kajang, RCS & 5 - 1, Jalan Impian Perdana 1, Saujana Impian, 43000 Kajang, Selangor",0193377694,false,false,false,false,10:00 am,11:00 pm,10:00 am,11:00 pm,tesco_kajang,,,
4678,4.335678,101.155267,Tesco Kampar,"Lot G04 Ground Floor Jalan Kampar Perdana Taman Kampar Perdana, 31900 Kampar, Perak",0193378524,false,false,false,false,9:30 am,10:30 pm,9:30 am,10:30 pm,tesco_kampar,,,
4679,3.193524,101.633572,Tesco Kepong,"Lot SB22, Mezzanie Floor, Tesco Kepong Stores, No.3 Jalan 7A/62A, Bandar Manjalara, 52200 Kuala Lumpur",0193374458,false,false,false,false,10:00 am,10:30 pm,10:00 am,10:30 pm,tesco_kepong,,,
4680,6.114407,102.231368,Tesco Kota Bharu,"Lot No G6 Ground Floor Tesco Kota Bahru Lot 1828 Seksyen 17, 15050 Kota Bharu, Kelantan",0193357141,false,false,false,false,9:30 am,10:30 pm,9:30 am,10:30 pm,tesco_kota_bharu,,,
4681,3.319786,101.271112,Tesco Kuala Selangor,"Lot G20, No.2, Medan Niaga Tesco, 45000 Kuala Selangor, Selangor",0193364437,false,false,false,false,9:30 am,10:30 pm,9:30 am,10:30 pm,tesco_kuala_selangor,,,
4682,1.667808,103.575792,Tesco Kulai,"Lot No.M19 Mezzanine Floor, No. 52, Taman Desa Mas, Batu 22 1/2, Jalan Kulai Ayer Itam, 81000 Kulai, Johor",0193353068,false,false,false,false,9:30 am,10:30 pm,9:30 am,10:30 pm,tesco_kulai,,,
4683,5.36236,100.527159,Tesco Kulim,"Lot No G9 & G10, Tesco Kulim , Lembah Impian Mukim Kulim, 09000 Kulim, Kedah",0193315421,false,false,false,false,9:30 am,10:30 pm,9:30 am,10:30 pm,tesco_kulim,,,
4684,4.20794,100.672295,Tesco Manjung,"Lot F1 & F2,1st Floor Tesco Manjung, Lot 16051,Mukim Setiawan, 32000 Manjung, Perak",0193378095,false,false,false,false,10:00 am,11:00 pm,10:00 am,11:00 pm,tesco_manjung,,,
4685,2.205664,102.256123,Tesco Melaka,"Lot No 26, Ground Floor Tesco Melaka, No 1 Jln Tun Abd Razak, 75400 Melaka",0193366170,false,false,false,false,9:00 am,10:30 pm,9:00 am,10:30 pm,tesco_melaka,,,
4686,2.81565,101.790115,Tesco Nilai,"Lot G-10 Ground Floor Tesco Putra Nilai Jalan BBN 1/3, 71800 Bandar Baru Nilai, Negeri Sembilan",0193316602,false,false,false,false,9:30 am,11:00 pm,9:30 am,11:00 pm,tesco_nilai,,,
4687,3.036473,101.615915,Tesco Puchong,"Lot No 18 Ground Floor Tesco Puchong Hypermarket, No 148-149 Jln Bandar 3, 47100 Pusat Bandar Puchong, Selangor",0193381517,false,true,false,true,8:00 am,11:00 pm,8:00 am,11:00 pm,tesco_puchong,,,
4688,3.30253,101.597951,Tesco Rawang,"Lot No G1, Ground Floor, Tesco Hypermarket Rawang, Lot PT, 6440 Mukim Rawang, 53100 Daerah Gombak, Selangor",0193381918,false,false,false,false,10:00 am,10:00 pm,10:00 am,10:00 pm,tesco_rawang,,,
4689,2.930749,101.856934,Tesco Semenyih,"No. 1 Jalan TPS 1/1, Taman Pelangi Semenyih, 43500 Semenyih, Selangor",0193376630,false,false,false,false,10:00 am,11:00 pm,10:00 am,11:00 pm,tesco_semenyih,,,
4690,2.712575,101.914491,Tesco Seremban 2,"Lot No G02, Ground Floor Tesco Seremban 2, PT 2347 Pekan Bukit Kepayang, Daerah Seremban, 70300 Seremban, Negeri Sembilan",0193316401,false,false,false,false,9:30 am,10:00 pm,9:30 am,10:00 pm,tesco_seremban_2,,,
4691,1.497084,103.869058,"Tesco Seri Alam, JB","Lease 3, Jalan Seri Alam, Bandar Seri Alam, 81750 Johor Bahru, Johor",0193350991,false,false,false,true,9:30 am,11:00 pm,9:30 am,11:00 pm,tesco_seri_alam_jb,,,
4692,5.622573,100.475795,Tesco Sg Petani,"Lot 2,3 & 4 Ground Floor 360 Jln Lagenda 1, Lagenda Height, 08000 Sungai Petani, Kedah",0193315066,false,true,false,false,8:00 am,11:00 pm,8:00 am,11:00 pm,tesco_sg_petani,,,
4693,5.616038,100.471248,Tesco Sg Petani Mutiara Plaza,"Lot F07, No 368 Jalan Bakar Arang, 08000 Sungai Petani, Kedah",0193315356,false,false,false,false,9:00 am,11:00 pm,9:00 am,11:00 pm,tesco_sg_petani_mutiara_plaza,,,
4694,3.071781,101.538785,Tesco Shah Alam,"No.6 Ground Floor, Tesco Hypermarket Shah Alam, No.3 Jalan Aerobik 13/43, Section 13, 40100 Shah Alam, Selangor",0193361654,false,false,false,true,10:00 am,10:30 pm,10:00 am,10:30 pm,tesco_shah_alam,,,
4695,4.545007,101.068027,"Tesco Station 18, Pasir Putih","No 30 Ground Floor, Tesco Station 18, 31250 Pasir Putih, Ipoh, Perak",0193371690,false,false,false,false,9:30 am,11:00 pm,9:30 am,11:00 pm,tesco_station_18_pasir_putih,,,
4696,4.866009,100.730154,Tesco Taiping,"Lot No 08, 1st Floor, Jalan Istana Larut, 34000 Taiping, Perak",0193378658,false,false,false,false,9:30 am,11:00 pm,9:30 am,11:00 pm,tesco_taiping,,,
4697,5.459156,100.30835,Tesco Tanjung Pinang,"Lot G07 & G08, Tesco Tanjung Pinang, Jalan Tanjong Tokong, 10470 Pulau Pinang",0193311640,false,false,false,false,9:30 am,11:00 pm,9:30 am,11:00 pm,tesco_tanjung_pinang,,,
4698,3.157538,101.612002,The Curve Damansara,"Lot No G39, Ground Floor, No 6 Jalan PJU 7/3 Mutiara Damansara, 47810 Petaling Jaya, Selangor",0193361082,false,false,false,true,10:30 am,11:00 pm,10:30 am,11:00 pm,the_curve_damansara,,,
4699,3.027986,101.718231,The Mines,"Lot L2.76, Level 2, The Mines Shopping Fair, Jalan Dulang, Mines Resort City, 43300 Seri Kembangan, Selangor",0193382258,false,false,false,false,10:00 am,10:00 pm,10:00 am,10:00 pm,the_mines,,,
4700,1.53582,110.357492,the Spring,"Lot G05 Ground Floor, the Spring Shopping Mall, Jalan Simpang Tiga, 93300 Kuching, Sarawak",0198876992,false,false,false,false,10:00 am,10:00 pm,10:00 am,10:00 pm,the_spring,0.0037335000000000562,0.01212729999998885,0.012688988436425104
4701,2.943868,101.844807,The Store Semenyih (Fajar),"Ground Floor (Fast Food Area) Fajar Supermarket Department Store, Semenyih Sentral, Jalan Semenyih 3, 43500 Semenyih, Selangor",0193376651,false,false,false,false,10:00 am,10:30 pm,10:00 am,10:30 pm,the_store_semenyih_(fajar),,,
4702,3.197176,113.088256,Times Square,"Level 1, Lot No. 23A, Times Square Megamall, 97008 Bintulu, Sarawak",0198883934,false,false,false,false,10:00 am,10:00 pm,10:00 am,10:00 pm,times_square,,,
4703,3.249063,102.418105,Triang Drive Thru,"PT 25216 Mukim Triang Daerah Bera, 28200 Triang, Pahang",0193359865,false,false,true,false,10:00 am,3:00 am,10:00 am,3:00 am,triang_drive_thru,,,
4704,5.654315,100.514176,Tuanku Haminah Sg Petani,"33A, Jalan Tengku Haminah 1, Taman Tengku Haminah, 08200 Sg Petani, Kedah",0193315810,false,false,false,true,10:30 am,11:00 pm,10:30 am,11:00 pm,tuanku_haminah_sg_petani,,,
4705,5.654315,116.232611,Tuaran,"Ground & 2nd Floors, Lot No. 1, Block 7, Jalan Kiog, Tuaran, 88300 Kota Kinabalu",0198889674,true,true,false,false,12:00 am,12:00 am,12:00 am,12:00 am,tuaran,,,
4706,6.185634,102.167843,Tumpat,"No 8 & 9, adjoining Ground Floor, Kampung Terbak, 16200 Tumpat, Kelantan",0193358091,false,false,false,false,10:00 am,11:00 pm,10:00 am,11:00 pm,tumpat,,,
4707,1.523925,103.664427,Tun Aminah,"66 Jalan Perwira Satu, Taman Ungku Tun Aminah, 81300 Skudai",0193355843,false,false,false,false,10:30 am,11:00 pm,10:30 am,11:00 pm,tun_aminah,,,
4708,3.05026,101.583728,USJ Taipan,"No. 71 Jalan USJ 10/ 1A, Subang Jaya, 47100 Petaling Jaya, Selangor",0193375061,false,true,false,true,8:00 am,11:00 pm,8:00 am,11:00 pm,usj_taipan,,,
4709,5.280726,115.240823,"Utama Jaya, Labuan 3","Lot C19 (Corner Lot), Jalan Kemajuan / Ujong Pasir, 87000 W.P Labuan",0198884980,false,false,false,true,9:30 am,11:00 pm,9:30 am,11:00 pm,utama_jaya_labuan_3,,,
4710,5.395943,100.316574,"Vantage Point, Jelutong","37 - J , Lot 20 Jalan Lenggong, 11600 Pulau Pinang",0193312506,false,false,false,true,10:30 am,11:00 pm,10:30 am,11:00 pm,vantage_point_jelutong,,,
4711,3.177885,101.685401,Viva Jalan Ipoh,"No. 21, Jalan Suppiah Pillay, Off Jalan Ipoh, 51200 Kuala Lumpur",0193316737,false,false,false,true,11:00 am,11:00 pm,11:00 am,11:00 pm,viva_jalan_ipoh,,,
4712,3.10738,101.639971,"VSQ, Petaling Jaya","Level Ground Floor Tower 1, V Square @PJ City Centre, Jalan Utara, Section 52, 46100 Petaling Jaya, Selangor",0193389600,false,true,false,false,7:00 am,9.30 pm,7:00 am,9.30 pm,vsq_petaling_jaya,,,
4713,2.290999,111.825522,W. Sanyan,"1.13, W. Sanyan, Jalan Causeway, 96000 Sibu, Sarawak",0198879376,false,false,false,false,10:00 am,10:00 pm,10:00 am,10:00 pm,w._sanyan,,,
4714,3.202219,101.733823,Wangsa Maju,"Lot G09 & G010, Jalan R1 Section 1, Wangsa Maju, 53300 Kuala Lumpur",0193360697,false,false,false,false,10:00 am,10:00 pm,10:00 am,10:00 pm,wangsa_maju,,,
4715,3.196006,101.743178,Wangsa Maju Drive Thru,"Lot PT 6878, Jalan 8/72A, Wangsa Maju, 53300 Kuala Lumpur",0193360673,true,true,true,false,12:00 am,12:00 am,12:00 am,12:00 am,wangsa_maju_drive_thru,,,
4716,5.9778587,116.0026616,Waterfront,"Ground & 1st Floor, Block A, Lot No. 8, May Huat Plaza, Jalan Datuk Salleh Sulong, Segama Complex, 88000 Kota Kinabalu, Sabah",0198882807,false,false,false,false,12:00 am,12:00 am,12:00 am,12:00 am,waterfront,,,
4717,5.973429,116.068144,Wawasan Plaza,"Level 1, Ground Floor, Lot 2-1-18 & Lot 2-1-18A, Wawasan Plaza, 88000 Kota Kinabalu, Sabah",0198882481,false,false,false,false,10:00 am,10:00 pm,10:00 am,10:00 pm,wawasan_plaza,,,
4718,2.732844,101.936324,Wisma Gerakan,"No 21 Ground&1st Floor Jalan Tun Dr Ismail, 70200 Seremban, Negeri Sembilan",0193316574,false,true,false,false,8:00 am,2:00 am,8:00 am,2:00 am,wisma_gerakan,,,
4719,1.553895,110.340513,Wisma Hopoh,"Lot 120-124, G/F Jalan Jawa, 93400 Kuching, Sarawak",0198876531,false,false,false,false,10:00 am,10:00 pm,10:00 am,10:00 pm,wisma_hopoh,,,
4720,3.180241,101.683644,Wisma Hualang,"Ground Floor 437 Wisma Hualang, Jalan Ipoh, 51200 Kuala Lumpur",0193362632,true,true,false,false,12:00 am,12:00 am,12:00 am,12:00 am,wisma_hualang,0.008488999999999969,0.0072244000000836195,0.011146976108398533
4721,5.985595,116.076029,Wisma Merdeka,"Lot BG14, BG19D & BG19E, Ground Floor, Wisma Merdeka, 88400 Phase II, Kota Kinabalu, Sabah",0198880439,false,false,false,false,10:00 am,9:00 pm,10:00 am,8:00 pm,wisma_merdeka,,,
4722,2.011273,103.062418,Yong Peng,"No.119 & 120, Jalan Besar Yong Peng, 83700 Yong Peng, Johor",0193384691,false,true,false,false,8:00 am,11:00 pm,8:00 am,11:00 pm,yong_peng,,,
4723,3.16064,101.719552,Ampang Park,"Lot GA-89 GF Ampang Park Shopping Centre, Jalan Ampang, 50450 Kuala Lumpur",0193362754,true,true,false,true,12:00 am,12:00 am,12:00 am,12:00 am,ampang_park,0.0036913999999872438,0.00724899999991635,0.008134767050057
4724,3.101141,101.641257,5 Barat,"No.5 Jalan Barat, 46200 Petaling Jaya, Selangor",019 338 0378,true,true,false,false,12:00 am,12:00 am,12:00 am,12:00 am,5_barat,,,
4725,3.177117,101.750906,"AEON AU2, Setiawangsa","No 6, Jalan Taman Setiawangsa Bandar Baru Ampang Mukim Hulu Kelang, 54200 Kuala Lumpur",0193360227,false,false,false,false,10:00 am,10:00 pm,10:00 am,10:00 pm,aeon_au2_setiawangsa,,,
4726,1.4813577,103.6537307,AEON Bukit Indah Johor,"Lot G9 and G10, Ground Floor, AEON Jusco Bukit Indah, 81200 Johor Bahru, Johor",0193352869,false,false,false,false,10:00 am,10:00 pm,10:00 am,10:00 pm,aeon_bukit_indah_johor,,,
4727,2.99492,101.444169,AEON Bukit Tinggi,"Lot G30, GF, Aeon Bukit tinggi Shopping Ctr 1 Persiaran Batu Nilam, 1/KS6, Bandar Bukit Tinggi 2 Klang, 41200 Selangor",0193380378,false,false,false,false,10:00 am,10:30 pm,10:00 am,10:30 pm,aeon_bukit_tinggi,,,
4728,1.640604,103.617466,AEON Kulaijaya,"No G53 Ground Floor, AEON Mall Kulaijaya, 81000 Johor Bahru, Johor",0193354372,false,false,false,false,9:30 am,10:00 pm,9:30 am,10:00 pm,aeon_kulaijaya,,,
4729,3.0549,101.78737,AEON Mahkota Cheras,"Lot G12, Ground Floor, Aeon Mahkota Cheras, Cheras, 43100 Kajang, Selangor",0193371665,false,false,false,false,10:30 am,10:00 pm,10:30 am,10:00 pm,aeon_mahkota_cheras,,,
4730,5.3203009,100.4779465,AEON Mall Bukit Mertajam,"Lot No. G01 & G01A, AEON Mall Alma, 14000 Bukit Mertajam, Penang",0193313059,false,false,false,false,10:00 am,10:00 pm,10:00 am,10:00 pm,aeon_mall_bukit_mertajam,,,
4731,4.677454,101.123123,AEON Mall Klebang,"Lot S05-S06, 2nd Floor, Klebang, 31400 Ipoh, Perak",0193387967,false,false,false,false,10:00 am,10:00 pm,10:00 am,10:00 pm,aeon_mall_klebang,,,
4732,6.110623,102.231041,AEON Mall Kota Bharu,"Lot G42, Ground Floor, AEON Mall Kota Bharu, 15050 Kota Bharu, Kelantan",0193362024,false,false,false,false,10:00 am,10:00 pm,10:00 am,10:00 pm,aeon_mall_kota_bharu,,,
4733,2.215096,102.246097,AEON Melaka,"No G - 82, Ground Floor, AEON Bandaraya Melaka Shopping Centre, No 2, Jalan Lagenda, Taman 1 Lagenda, 75400 Melaka",0193366206,false,false,false,false,10:00 am,10:00 pm,10:00 am,10:00 pm,aeon_melaka,,,
4734,4.545677,101.070647,"AEON Pasir Putih, Perak","Lot 65, Ground Floor AEON Ipoh, Station 18 Shopping Centre, 31650 Ipoh, Perak",0193379116,false,false,false,false,10:00 am,10:00 pm,10:00 am,10:00 pm,aeon_pasir_putih_perak,,,
4735,4.220464,100.671855,AEON Seri Manjung,"Lot G66 - G67, Pusat Persiaran Manjung Point 3, 32040 Seri Manjung, Perak",0193378024,false,false,false,false,10:00 am,10:30 pm,10:00 am,10:30 pm,aeon_seri_manjung,,,
4736,3.076503,101.548839,AEON Shah Alam,"S-19 & S-20 (Second Floor), AEON Mall, 40000 Shah Alam, Selangor",0193363624,false,false,false,false,10:00 am,10:00 pm,10:00 am,10:00 pm,aeon_shah_alam,,,
4737,4.872692,100.728473,AEON Taiping,"G12 & 13, AEON Mall, Taiping, Jalan Kamunting, 34000 Taiping, Perak",0193385825,false,false,false,false,10:00 am,10:00 pm,10:00 am,10:00 pm,aeon_taiping,,,
4738,3.0066,101.568069,Alam Megah,"No. 28 Jalan Batu Laut, Section 28, 40990 Shah Alam, Selangor",0193362140,false,false,false,true,10:00 am,11:00 pm,10:00 am,11:00 pm,alam_megah,,,
4739,3.074305,101.517175,Alam Sentral,"Lot G-22A & G22B Plaza Alam Sentral, 40000 Shah Alam, Selangor",0193361367,false,false,false,false,10:00 am,10:00 pm,10:00 am,10:00 pm,alam_sentral,,,
4740,2.939871,101.712053,"Alamanda, Putrajaya","Lot G89, Alamanda Putra Jaya Shopping Centre, Jln Alamanda, Presint 1, 62000 Putrajaya",0193373087,false,false,false,false,10:00 am,10:00 pm,10:00 am,10:00 pm,alamanda_putrajaya,,,
4741,5.316323,100.476333,Alma Bukit Mertajam,"No. 2877 Ground & 1st Floor, ,Jalan Rozhan, Pusat Perniagaan Rozhan, Alma, 14000 Pulau Pinang",0193314079,false,false,false,false,10:30 am,11:00 pm,10:30 am,11:00 pm,alma_bukit_mertajam,,,
4742,6.096621,100.375287,Alor Mengkudu Drive Thru,"Lot 13883, Caltex Petrol Station, Jalan Alor Mengkudu, 05400 Alor Star, Kedah",0193314218,true,true,true,false,12:00 am,12:00 am,12:00 am,12:00 am,alor_mengkudu_drive_thru,,,
4743,6.12505,100.357043,"Alor Setar 3, Jalan Putra","201 Medan Putra Jalan Seberang Putra, 05100 Alor Setar, Kedah",0193315045,false,false,false,false,10:30 am,11:00 pm,10:30 am,11:00 pm,alor_setar_3_jalan_putra,,,
4744,6.107274,100.365659,Alor Setar Drive Thru (Alor Setar 1),"No.PT 3297 Mukim Alor Malai kompleks Sukan MPKS Jalan Stadium, 05100 Alor Setar, Kedah",0193314384,true,true,true,false,12:00 am,12:00 am,12:00 am,12:00 am,alor_setar_drive_thru_(alor_setar_1),,,
4745,6.081396,100.36104,Alor Star Mall,"Lot G 8A GF Alor Star Mall, 05400 Alor Star, Kedah",0193315083,false,false,false,false,10:30 am,11:00 pm,10:30 am,11:00 pm,alor_star_mall,,,
4746,6.124967,100.366451,"Aman Central, Alor Setar","Lot 1-40, 1-56 & EL-57, 1st Floor, Aman central, Lebuhraya Darulaman, 05100 Alor Setar, Kedah",0193385387,false,false,false,false,10:00 am,11:00 pm,10:00 am,11:00 pm,aman_central_alor_setar,,,
4747,5.51817,100.424851,Amanputra Kepala Batas,"Lot No.39, Lorong Amanputra 1, Taman Amanputra, 13200 Kepala Batas, Pulau Pinang",0193314190,false,false,false,false,10:30 am,11:00 pm,10:30 am,11:00 pm,amanputra_kepala_batas,,,
4748,3.146341,101.766863,Ampang 2,"52G -54G, Jalan Wawasan 2/3, Bandar Baru Ampang, 68000 Kuala Lumpur",0193375298,false,true,false,true,8:00 am,3:00 am,8:00 am,3:00 am,ampang_2,,,
4749,3.158077,101.751018,Ampang Point,"Lot G03A GF Ampang Point Shopping Complex, Jalan Mamanda 3, 68000 Ampang, Selangor",0193375304,false,true,false,false,9:00 am,11:00 pm,9:00 am,11:00 pm,ampang_point,,,
4750,6.427126,100.272674,Arau,"No 19 Jalan 2, Jalan Arau-Kodiang, Kompleks Tok Arau, 02600 Arau, Perlis",0193316211,true,true,false,false,12:00 am,12:00 am,12:00 am,12:00 am,arau,,,
4751,3.127196,101.616992,Atria Damansara,"Lot C-09, Lower Ground Floor, Atria Shopping Gallery, Jalan SS2/21, 47400 Damansara Jaya, Selangor",0193361686,false,false,false,false,10:00 am,10:00 pm,10:00 am,10:00 pm,atria_damansara,,,
4752,2.232141,102.282007,Ayer Keroh Drive Thru,"Lot 4260 Lebuh Ayer Keroh, 75450 Hang Tuah Jaya, Melaka, 75450 Hang Tuah Jaya, Melaka",0193366318,true,true,true,true,12:00 am,12:00 am,12:00 am,12:00 am,ayer_keroh_drive_thru,,,
4753,2.23353,102.282843,Ayer Keroh-JUSCO,"Lot G12, Ground Floor, Jaya Jusco Malacca, 75450 Ayer Keroh, Melaka",0193365908,false,false,false,false,10:30 am,11:00 pm,10:30 am,11:00 pm,ayer_keroh-jusco,,,
4754,4.302018,100.759129,Ayer Tawar,"Lot 147 Mainroad, 32400 Air Tawar, Perak",0193372090,false,true,false,false,10:30 am,11:00 pm,10:30 am,11:00 pm,ayer_tawar,,,
4755,6.064486,102.400377,Bachok Drive Thru,"Lot 424, Mukim Bandar Bachok, 16300 Bachok, Kelantan",0193357883,true,true,true,false,12:00 am,12:00 am,12:00 am,12:00 am,bachok_drive_thru,,,
4756,5.012772,100.534384,Bagan Serai,"120 Jalan Setia, Pusat Bandar Bagan Serai, 34300 Bagan Serai, Perak",0193371940,false,true,false,false,8:00 am,11:00 pm,8:00 am,11:00 pm,bagan_serai,,,
4757,2.810848,102.400464,Bahau,"Lot No 172 Jalan Mewah, 72100 Bahau, Negeri Sembilan",0193383602,false,true,false,false,9:00 am,11:00 pm,9:00 am,11:00 pm,bahau,,,
4758,1.580123,110.371103,Bako Drive Thru,"Lot 1165, Blk. 19, Jalan Demak Jaya, Bako, 93050 Kuching, Sarawak",0198876398,true,true,true,false,12:00 am,12:00 am,12:00 am,12:00 am,bako_drive_thru,,,
4759,3.042303,101.772761,Balakong,"Ground & 1st Floor, No.9, Jalan Pekan Cheras Batu 11, 43200 Kajang, Selangor",0193376736,false,true,false,false,8:00 am,11:00 pm,8:00 am,11:00 pm,balakong,0.0039679999999999715,0.0004190999999877931,0.003990071278810636
4760,5.35146,100.238176,Balik Pulau,"No.21 Jln Tun Sardon, MK6 Balik Pulau, 11000 Pulau Pinang",0193312725,false,true,false,false,8:00 am,11:00 pm,8:00 am,11:00 pm,balik_pulau,,,
4761,5.675505,100.917195,Baling,"N0 20 Jalan Syed Sheikh, 09100 Baling, Kedah",0193315053,false,true,false,false,8:00 am,11:00 pm,8:00 am,11:00 pm,baling,,,
4762,3.93277,103.367304,"Balok, Kuantan","No 2 Lot 1472 Jalan Kuantan - Kemaman Mukim Sungai Karang, Balok, 26100 Kuantan, Pahang",0193359624,false,false,false,false,10:30 am,11:00 pm,10:30 am,11:00 pm,balok_kuantan,,,
4763,4.246047,117.882555,"Balung, Tawau","Lot 43, Taman Sawit, KM 35, Apas Balung Highway, 91009 Tawau, Sabah",0198887681,false,false,false,false,10:00 am,10:00 pm,10:00 am,10:00 pm,balung_tawau,,,
4764,1.921648,103.183166,Bandar Baru Ayer Hitam Johor,"No 1 & 2, Jalan Bandar Baru 1, 86100 Ayer Hitam, Kluang, Johor",0193384577,false,false,false,false,10:30 am,11:00 pm,10:30 am,11:00 pm,bandar_baru_ayer_hitam_johor,,,
4765,5.476348,100.252399,Eden Parade,"G5 & EP - G6 Eden Parade Batu Feringghi, 11100 Pulau Pinang",0193310190,false,false,false,false,10:30 am,11:00 pm,10:30 am,11:00 pm,eden_parade,,,
4766,3.0041695,101.5372122,Kota Kemuning,Jln Anggerik Vanilla BE 31/BE Kota Kemuning 40460 Shah Alam Selangor Malaysia,0351314192,false,true,false,false,08:00 am,11:00 pm,08:00 am,11:00 pm,kota_kemuning,,,
